{
"type": "FeatureCollection",
"name": "fire_stations",
"crs": { "type": "name", "properties": { "name": "urn:ogc:def:crs:OGC:1.3:CRS84" } },
"features": [
{ "type": "Feature", "properties": { "OBJECTID": 1, "STNID": "SFD 35", "ADDRESS": "8729 15TH AV NW", "SE_ANNO_CAD_DATA": "" }, "geometry": { "type": "Point", "coordinates": [ -122.377172813681, 47.693287614092 ] } },
{ "type": "Feature", "properties": { "OBJECTID": 2, "STNID": "SFD 2", "ADDRESS": "2320 4TH AV", "SE_ANNO_CAD_DATA": "" }, "geometry": { "type": "Point", "coordinates": [ -122.344493192543993, 47.616073944071701 ] } },
{ "type": "Feature", "properties": { "OBJECTID": 3, "STNID": "SFD HQ", "ADDRESS": "301 2ND AVE S", "SE_ANNO_CAD_DATA": "" }, "geometry": { "type": "Point", "coordinates": [ -122.331953719946995, 47.5998616114017 ] } },
{ "type": "Feature", "properties": { "OBJECTID": 4, "STNID": "SFD 11", "ADDRESS": "1514 SW HOLDEN ST", "SE_ANNO_CAD_DATA": "" }, "geometry": { "type": "Point", "coordinates": [ -122.354695223047997, 47.5339337561538 ] } },
{ "type": "Feature", "properties": { "OBJECTID": 5, "STNID": "SFD 38", "ADDRESS": "4004 NE 55TH ST", "SE_ANNO_CAD_DATA": "" }, "geometry": { "type": "Point", "coordinates": [ -122.284398796844997, 47.668749574228798 ] } },
{ "type": "Feature", "properties": { "OBJECTID": 6, "STNID": "SFD 31", "ADDRESS": "10503 INTERLAKE AVE N", "SE_ANNO_CAD_DATA": "" }, "geometry": { "type": "Point", "coordinates": [ -122.340886625894996, 47.705233704932198 ] } },
{ "type": "Feature", "properties": { "OBJECTID": 7, "STNID": "SFD 10", "ADDRESS": "400 S WASHINGTON ST", "SE_ANNO_CAD_DATA": "" }, "geometry": { "type": "Point", "coordinates": [ -122.328730698472995, 47.601015837204997 ] } },
{ "type": "Feature", "properties": { "OBJECTID": 8, "STNID": "SFD 40", "ADDRESS": "9401 35TH AV NE", "SE_ANNO_CAD_DATA": "" }, "geometry": { "type": "Point", "coordinates": [ -122.290937422794997, 47.696768160245803 ] } },
{ "type": "Feature", "properties": { "OBJECTID": 9, "STNID": "SFD 5", "ADDRESS": "925 ALASKAN WY", "SE_ANNO_CAD_DATA": "" }, "geometry": { "type": "Point", "coordinates": [ -122.338828731782002, 47.603642776869798 ] } },
{ "type": "Feature", "properties": { "OBJECTID": 10, "STNID": "SFD 24", "ADDRESS": "401 N 130TH ST", "SE_ANNO_CAD_DATA": "" }, "geometry": { "type": "Point", "coordinates": [ -122.353825763166995, 47.723052995593903 ] } },
{ "type": "Feature", "properties": { "OBJECTID": 11, "STNID": "SFD 32", "ADDRESS": "3715 SW ALASKA ST", "SE_ANNO_CAD_DATA": "" }, "geometry": { "type": "Point", "coordinates": [ -122.379644137677005, 47.560820404071301 ] } },
{ "type": "Feature", "properties": { "OBJECTID": 12, "STNID": "SFD 22", "ADDRESS": "901 E ROANOKE ST", "SE_ANNO_CAD_DATA": "" }, "geometry": { "type": "Point", "coordinates": [ -122.320849813704001, 47.642980925007699 ] } },
{ "type": "Feature", "properties": { "OBJECTID": 13, "STNID": "SFD 13", "ADDRESS": "3601 BEACON AV S", "SE_ANNO_CAD_DATA": "" }, "geometry": { "type": "Point", "coordinates": [ -122.308645789558994, 47.5717417981976 ] } },
{ "type": "Feature", "properties": { "OBJECTID": 14, "STNID": "SFD 9", "ADDRESS": "3829 LINDEN AV N", "SE_ANNO_CAD_DATA": "" }, "geometry": { "type": "Point", "coordinates": [ -122.348884537359993, 47.6536246989291 ] } },
{ "type": "Feature", "properties": { "OBJECTID": 15, "STNID": "SFD 27", "ADDRESS": "1000 S MYRTLE ST", "SE_ANNO_CAD_DATA": "" }, "geometry": { "type": "Point", "coordinates": [ -122.319907104310005, 47.539660296537797 ] } },
{ "type": "Feature", "properties": { "OBJECTID": 16, "STNID": "SFD 34", "ADDRESS": "633 32ND AV E", "SE_ANNO_CAD_DATA": "" }, "geometry": { "type": "Point", "coordinates": [ -122.291334317335, 47.6260004414845 ] } },
{ "type": "Feature", "properties": { "OBJECTID": 17, "STNID": "SFD 17", "ADDRESS": "1050 NE 50TH ST", "SE_ANNO_CAD_DATA": "" }, "geometry": { "type": "Point", "coordinates": [ -122.316658976078003, 47.665167015319902 ] } },
{ "type": "Feature", "properties": { "OBJECTID": 18, "STNID": "SFD 29", "ADDRESS": "2139 FERRY AV SW", "SE_ANNO_CAD_DATA": "" }, "geometry": { "type": "Point", "coordinates": [ -122.388749593512998, 47.584392520472903 ] } },
{ "type": "Feature", "properties": { "OBJECTID": 19, "STNID": "SFD 25", "ADDRESS": "1300 E PINE ST", "SE_ANNO_CAD_DATA": "" }, "geometry": { "type": "Point", "coordinates": [ -122.315095899070002, 47.615567992584602 ] } },
{ "type": "Feature", "properties": { "OBJECTID": 20, "STNID": "SFD 37", "ADDRESS": "7700 35TH AV SW", "SE_ANNO_CAD_DATA": "" }, "geometry": { "type": "Point", "coordinates": [ -122.376324094655004, 47.533552471202597 ] } },
{ "type": "Feature", "properties": { "OBJECTID": 21, "STNID": "SFD 33", "ADDRESS": "9645 RENTON AV S", "SE_ANNO_CAD_DATA": "" }, "geometry": { "type": "Point", "coordinates": [ -122.268662079113, 47.5159273096696 ] } },
{ "type": "Feature", "properties": { "OBJECTID": 22, "STNID": "SFD 8", "ADDRESS": "110 LEE ST", "SE_ANNO_CAD_DATA": "" }, "geometry": { "type": "Point", "coordinates": [ -122.354985435789999, 47.631175118113902 ] } },
{ "type": "Feature", "properties": { "OBJECTID": 23, "STNID": "SFD 36", "ADDRESS": "3600 23RD AV SW", "SE_ANNO_CAD_DATA": "" }, "geometry": { "type": "Point", "coordinates": [ -122.361733758491994, 47.571034406003903 ] } },
{ "type": "Feature", "properties": { "OBJECTID": 24, "STNID": "SFD 28", "ADDRESS": "5968 RAINIER AV S", "SE_ANNO_CAD_DATA": "" }, "geometry": { "type": "Point", "coordinates": [ -122.276502981180002, 47.5484760363371 ] } },
{ "type": "Feature", "properties": { "OBJECTID": 25, "STNID": "SFD 18", "ADDRESS": "1521 NW MARKET ST", "SE_ANNO_CAD_DATA": "" }, "geometry": { "type": "Point", "coordinates": [ -122.377330922786996, 47.668390492089003 ] } },
{ "type": "Feature", "properties": { "OBJECTID": 26, "STNID": "SFD 14", "ADDRESS": "3224 4TH AV S", "SE_ANNO_CAD_DATA": "" }, "geometry": { "type": "Point", "coordinates": [ -122.328558878457002, 47.574616651668201 ] } },
{ "type": "Feature", "properties": { "OBJECTID": 27, "STNID": "SFD 26", "ADDRESS": "800 S CLOVERDALE ST", "SE_ANNO_CAD_DATA": "" }, "geometry": { "type": "Point", "coordinates": [ -122.322375819026007, 47.526718314031498 ] } },
{ "type": "Feature", "properties": { "OBJECTID": 28, "STNID": "SFD 16", "ADDRESS": "6846 OSWEGO PL NE", "SE_ANNO_CAD_DATA": "" }, "geometry": { "type": "Point", "coordinates": [ -122.323249475329007, 47.679077302281001 ] } },
{ "type": "Feature", "properties": { "OBJECTID": 29, "STNID": "HMC", "ADDRESS": "325 9TH AVE", "SE_ANNO_CAD_DATA": "" }, "geometry": { "type": "Point", "coordinates": [ -122.323768929468002, 47.603993026528897 ] } },
{ "type": "Feature", "properties": { "OBJECTID": 30, "STNID": "SFD 30", "ADDRESS": "2931 S MT BAKER BLVD", "SE_ANNO_CAD_DATA": "" }, "geometry": { "type": "Point", "coordinates": [ -122.294690781412001, 47.575640214693799 ] } },
{ "type": "Feature", "properties": { "OBJECTID": 31, "STNID": "SFD 21", "ADDRESS": "7304 GREENWOOD AV N", "SE_ANNO_CAD_DATA": "" }, "geometry": { "type": "Point", "coordinates": [ -122.354943999265004, 47.682027639187801 ] } },
{ "type": "Feature", "properties": { "OBJECTID": 32, "STNID": "SFD 20", "ADDRESS": "2800 15TH AVE W", "SE_ANNO_CAD_DATA": "" }, "geometry": { "type": "Point", "coordinates": [ -122.375789140782999, 47.644931209303998 ] } },
{ "type": "Feature", "properties": { "OBJECTID": 33, "STNID": "SFD 6", "ADDRESS": "405 M L KING JR WAY S", "SE_ANNO_CAD_DATA": "" }, "geometry": { "type": "Point", "coordinates": [ -122.297871558843994, 47.599053105878397 ] } },
{ "type": "Feature", "properties": { "OBJECTID": 34, "STNID": "SFD 39", "ADDRESS": "2806 NE 127th St", "SE_ANNO_CAD_DATA": "" }, "geometry": { "type": "Point", "coordinates": [ -122.297346898108998, 47.721256705469798 ] } },
{ "type": "Feature", "properties": { "OBJECTID": 35, "STNID": "SFD 41", "ADDRESS": "2416 34TH AV W", "SE_ANNO_CAD_DATA": "" }, "geometry": { "type": "Point", "coordinates": [ -122.400618146181003, 47.640152190678698 ] } },
{ "type": "Feature", "properties": { "OBJECTID": 36, "STNID": "SFD 3", "ADDRESS": "1735 W THURMAN ST", "SE_ANNO_CAD_DATA": "" }, "geometry": { "type": "Point", "coordinates": [ -122.377915324217994, 47.658138500525801 ] } }
]
}
