{
"type": "FeatureCollection",
"name": "phoenix_facilities",
"crs": { "type": "name", "properties": { "name": "urn:ogc:def:crs:OGC:1.3:CRS84" } },
"features": [
{ "type": "Feature", "properties": { "OBJECTID": 1, "NAME": "Acacia Branch Library", "ST_NBR": 750, "ST_PREDIR": "E", "ST_NAME": "TOWNLEY", "ST_TYPE": "AVE", "SE_ANNO_CAD_DATA": null, "ADDR_ZIPPLUS_NBR": "85020-2950", "ADDRESS": "750 E Townley Ave", "ADDR_CITY_NAME": "PHOENIX", "ADDR_STATE_CODE": "AZ" }, "geometry": { "type": "Point", "coordinates": [ -112.063153321873031, 33.566276881913296 ] } },
{ "type": "Feature", "properties": { "OBJECTID": 2, "NAME": "Harmon Branch Library", "ST_NBR": 1325, "ST_PREDIR": "S", "ST_NAME": "5TH", "ST_TYPE": "AVE", "SE_ANNO_CAD_DATA": null, "ADDR_ZIPPLUS_NBR": "85007", "ADDRESS": "1325 S 5th Ave", "ADDR_CITY_NAME": "PHOENIX", "ADDR_STATE_CODE": "AZ" }, "geometry": { "type": "Point", "coordinates": [ -112.079134053229907, 33.43589946378119 ] } },
{ "type": "Feature", "properties": { "OBJECTID": 3, "NAME": "Desert Sage Branch Library", "ST_NBR": 7602, "ST_PREDIR": "W", "ST_NAME": "ENCANTO", "ST_TYPE": "BLVD", "SE_ANNO_CAD_DATA": null, "ADDR_ZIPPLUS_NBR": "85035-2500", "ADDRESS": "7602 W Encanto Blvd", "ADDR_CITY_NAME": "PHOENIX", "ADDR_STATE_CODE": "AZ" }, "geometry": { "type": "Point", "coordinates": [ -112.223600733656184, 33.473930104087074 ] } },
{ "type": "Feature", "properties": { "OBJECTID": 4, "NAME": "Yucca Branch Library", "ST_NBR": 5648, "ST_PREDIR": "N", "ST_NAME": "15TH", "ST_TYPE": "AVE", "SE_ANNO_CAD_DATA": null, "ADDR_ZIPPLUS_NBR": "85015-2502", "ADDRESS": "5648 N 15th Ave", "ADDR_CITY_NAME": "PHOENIX", "ADDR_STATE_CODE": "AZ" }, "geometry": { "type": "Point", "coordinates": [ -112.09157247555234, 33.519867232418513 ] } },
{ "type": "Feature", "properties": { "OBJECTID": 5, "NAME": "Agave Branch Library", "ST_NBR": 23550, "ST_PREDIR": "N", "ST_NAME": "36TH", "ST_TYPE": "AVE", "SE_ANNO_CAD_DATA": null, "ADDR_ZIPPLUS_NBR": "85310", "ADDRESS": "23550 N 36th Ave", "ADDR_CITY_NAME": "PHOENIX", "ADDR_STATE_CODE": "AZ" }, "geometry": { "type": "Point", "coordinates": [ -112.140232635052854, 33.699450727989941 ] } },
{ "type": "Feature", "properties": { "OBJECTID": 6, "NAME": "Palo Verde Branch Library", "ST_NBR": 4402, "ST_PREDIR": "N", "ST_NAME": "51ST", "ST_TYPE": "AVE", "SE_ANNO_CAD_DATA": null, "ADDR_ZIPPLUS_NBR": "85031-1907", "ADDRESS": "4402 N 51st Ave", "ADDR_CITY_NAME": "PHOENIX", "ADDR_STATE_CODE": "AZ" }, "geometry": { "type": "Point", "coordinates": [ -112.169625348225935, 33.500428019146739 ] } },
{ "type": "Feature", "properties": { "OBJECTID": 7, "NAME": "Cholla Branch Library", "ST_NBR": 10050, "ST_PREDIR": "N", "ST_NAME": "METRO", "ST_TYPE": "PKWY", "SE_ANNO_CAD_DATA": null, "ADDR_ZIPPLUS_NBR": "85051-1525", "ADDRESS": "10050 N Metro Pkwy", "ADDR_CITY_NAME": "PHOENIX", "ADDR_STATE_CODE": "AZ" }, "geometry": { "type": "Point", "coordinates": [ -112.119799134431801, 33.578055915245713 ] } },
{ "type": "Feature", "properties": { "OBJECTID": 8, "NAME": "Burton Barr Central Library", "ST_NBR": 1221, "ST_PREDIR": "N", "ST_NAME": "CENTRAL", "ST_TYPE": "AVE", "SE_ANNO_CAD_DATA": null, "ADDR_ZIPPLUS_NBR": "85004-1820", "ADDRESS": "1221 N Central Ave", "ADDR_CITY_NAME": "PHOENIX", "ADDR_STATE_CODE": "AZ" }, "geometry": { "type": "Point", "coordinates": [ -112.073182506764596, 33.46223938108939 ] } },
{ "type": "Feature", "properties": { "OBJECTID": 9, "NAME": "Desert Broom Branch Library", "ST_NBR": 29710, "ST_PREDIR": "N", "ST_NAME": "CAVE CREEK", "ST_TYPE": "RD", "SE_ANNO_CAD_DATA": null, "ADDR_ZIPPLUS_NBR": "85331", "ADDRESS": "29710 N Cave Creek Rd", "ADDR_CITY_NAME": "PHOENIX", "ADDR_STATE_CODE": "AZ" }, "geometry": { "type": "Point", "coordinates": [ -111.992339844330729, 33.75446931349525 ] } },
{ "type": "Feature", "properties": { "OBJECTID": 10, "NAME": "Century Branch Library", "ST_NBR": 1750, "ST_PREDIR": "E", "ST_NAME": "HIGHLAND", "ST_TYPE": "AVE", "SE_ANNO_CAD_DATA": null, "ADDR_ZIPPLUS_NBR": "85016-4648", "ADDRESS": "1750 E Highland Ave", "ADDR_CITY_NAME": "PHOENIX", "ADDR_STATE_CODE": "AZ" }, "geometry": { "type": "Point", "coordinates": [ -112.043406811344852, 33.505975219674092 ] } },
{ "type": "Feature", "properties": { "OBJECTID": 11, "NAME": "Ocotillo Branch Library", "ST_NBR": 102, "ST_PREDIR": "W", "ST_NAME": "SOUTHERN", "ST_TYPE": "AVE", "SE_ANNO_CAD_DATA": null, "ADDR_ZIPPLUS_NBR": "85041-4806", "ADDRESS": "102 W Southern Ave", "ADDR_CITY_NAME": "PHOENIX", "ADDR_STATE_CODE": "AZ" }, "geometry": { "type": "Point", "coordinates": [ -112.074682858437825, 33.392694885812652 ] } },
{ "type": "Feature", "properties": { "OBJECTID": 12, "NAME": "Cesar Chavez Branch Library", "ST_NBR": 3635, "ST_PREDIR": "W", "ST_NAME": "BASELINE", "ST_TYPE": "RD", "SE_ANNO_CAD_DATA": null, "ADDR_ZIPPLUS_NBR": "85339", "ADDRESS": "3635 W Baseline Rd", "ADDR_CITY_NAME": "PHOENIX", "ADDR_STATE_CODE": "AZ" }, "geometry": { "type": "Point", "coordinates": [ -112.138544768233857, 33.376861678587638 ] } },
{ "type": "Feature", "properties": { "OBJECTID": 13, "NAME": "Ironwood Branch Library", "ST_NBR": 4333, "ST_PREDIR": "E", "ST_NAME": "CHANDLER", "ST_TYPE": "BLVD", "SE_ANNO_CAD_DATA": null, "ADDR_ZIPPLUS_NBR": "85048-8840", "ADDRESS": "4333 E Chandler Blvd", "ADDR_CITY_NAME": "PHOENIX", "ADDR_STATE_CODE": "AZ" }, "geometry": { "type": "Point", "coordinates": [ -111.989864164118714, 33.304810353678121 ] } },
{ "type": "Feature", "properties": { "OBJECTID": 14, "NAME": "Mesquite Branch Library", "ST_NBR": 4525, "ST_PREDIR": "E", "ST_NAME": "PARADISE VILLAGE", "ST_TYPE": "PKWY", "SE_ANNO_CAD_DATA": null, "ADDR_ZIPPLUS_NBR": "85032-6853", "ADDRESS": "4525 E Paradise Village Pkwy", "ADDR_CITY_NAME": "PHOENIX", "ADDR_STATE_CODE": "AZ" }, "geometry": { "type": "Point", "coordinates": [ -111.983685614340075, 33.604673573594638 ] } },
{ "type": "Feature", "properties": { "OBJECTID": 15, "NAME": "Saguaro Branch Library", "ST_NBR": 2808, "ST_PREDIR": "N", "ST_NAME": "46TH", "ST_TYPE": "ST", "SE_ANNO_CAD_DATA": null, "ADDR_ZIPPLUS_NBR": "85008-1504", "ADDRESS": "2808 N 46th St", "ADDR_CITY_NAME": "PHOENIX", "ADDR_STATE_CODE": "AZ" }, "geometry": { "type": "Point", "coordinates": [ -111.982866917484429, 33.478687092580181 ] } },
{ "type": "Feature", "properties": { "OBJECTID": 16, "NAME": "Juniper Branch Library", "ST_NBR": 1825, "ST_PREDIR": "W", "ST_NAME": "UNION HILLS", "ST_TYPE": "DR", "SE_ANNO_CAD_DATA": null, "ADDR_ZIPPLUS_NBR": "85027-5300", "ADDRESS": "1825 W Union Hills Dr", "ADDR_CITY_NAME": "PHOENIX", "ADDR_STATE_CODE": "AZ" }, "geometry": { "type": "Point", "coordinates": [ -112.098465692989862, 33.654217223453657 ] } },
{ "type": "Feature", "properties": { "OBJECTID": 17, "NAME": "South Mountain Community Library", "ST_NBR": 7050, "ST_PREDIR": "S", "ST_NAME": "24TH", "ST_TYPE": "ST", "SE_ANNO_CAD_DATA": null, "ADDR_ZIPPLUS_NBR": "85042-5806", "ADDRESS": "7050 S 24th St", "ADDR_CITY_NAME": "PHOENIX", "ADDR_STATE_CODE": "AZ" }, "geometry": { "type": "Point", "coordinates": [ -112.032488121678, 33.382233389908173 ] } }
]
}
