{
"type": "FeatureCollection",
"name": "seattle_facilities",
"crs": { "type": "name", "properties": { "name": "urn:ogc:def:crs:OGC:1.3:CRS84" } },
"features": [
{ "type": "Feature", "properties": { "OBJECTID": 1, "NAME": "BROADVIEW", "ADDRESS": "12755 GREENWOOD AVE N", "SPECIAL": " ", "SHELTER": 1, "LABEL": "Broadview", "WEBSITE": "https://www.spl.org/hours-and-locations/broadview-branch" }, "geometry": { "type": "Point", "coordinates": [ -122.356032042302004, 47.723004173426901 ] } },
{ "type": "Feature", "properties": { "OBJECTID": 2, "NAME": "LAKE CITY", "ADDRESS": "12501 28TH AVE NE", "SPECIAL": " ", "SHELTER": 1, "LABEL": "Lake City", "WEBSITE": "https://www.spl.org/hours-and-locations/lake-city-branch" }, "geometry": { "type": "Point", "coordinates": [ -122.298087010458005, 47.7198610281336 ] } },
{ "type": "Feature", "properties": { "OBJECTID": 3, "NAME": "MAGNOLIA", "ADDRESS": "2801 34TH AVE W", "SPECIAL": " ", "SHELTER": 1, "LABEL": "Magnolia", "WEBSITE": "https://www.spl.org/hours-and-locations/magnolia-branch" }, "geometry": { "type": "Point", "coordinates": [ -122.401343582302999, 47.645316100945998 ] } },
{ "type": "Feature", "properties": { "OBJECTID": 4, "NAME": "QUEEN ANNE", "ADDRESS": "400 W GARFIELD ST", "SPECIAL": " ", "SHELTER": 1, "LABEL": "Queen Anne", "WEBSITE": "https://www.spl.org/hours-and-locations/queen-anne-branch" }, "geometry": { "type": "Point", "coordinates": [ -122.362744475846995, 47.633781296702502 ] } },
{ "type": "Feature", "properties": { "OBJECTID": 5, "NAME": "FREMONT", "ADDRESS": "731 N 35TH ST", "SPECIAL": " ", "SHELTER": 1, "LABEL": "Fremont", "WEBSITE": "https://www.spl.org/hours-and-locations/fremont-branch" }, "geometry": { "type": "Point", "coordinates": [ -122.348399923651996, 47.650067894893198 ] } },
{ "type": "Feature", "properties": { "OBJECTID": 6, "NAME": "GREEN LAKE", "ADDRESS": "7364 E GREEN LAKE DR N", "SPECIAL": " ", "SHELTER": 1, "LABEL": "Green Lake", "WEBSITE": "https://www.spl.org/hours-and-locations/green-lake-branch" }, "geometry": { "type": "Point", "coordinates": [ -122.326716739667006, 47.6815007844829 ] } },
{ "type": "Feature", "properties": { "OBJECTID": 7, "NAME": "GREENWOOD", "ADDRESS": "8016 GREENWOOD AVE N", "SPECIAL": " ", "SHELTER": 1, "LABEL": "Greenwood", "WEBSITE": "https://www.spl.org/hours-and-locations/greenwood-branch" }, "geometry": { "type": "Point", "coordinates": [ -122.354964535600004, 47.687497056258103 ] } },
{ "type": "Feature", "properties": { "OBJECTID": 8, "NAME": "UNIVERSITY", "ADDRESS": "5009 ROOSEVELT WY NE", "SPECIAL": " ", "SHELTER": 1, "LABEL": "University", "WEBSITE": "https://www.spl.org/hours-and-locations/university-branch" }, "geometry": { "type": "Point", "coordinates": [ -122.317868191897006, 47.665236189923398 ] } },
{ "type": "Feature", "properties": { "OBJECTID": 9, "NAME": "MADRONA-SALLY GOLDMARK", "ADDRESS": "1134 33RD AVE", "SPECIAL": " ", "SHELTER": 1, "LABEL": "Madrona-Sally Goldmark", "WEBSITE": "https://www.spl.org/hours-and-locations/madrona-sally-goldmark-branch" }, "geometry": { "type": "Point", "coordinates": [ -122.290014064852002, 47.612674185110301 ] } },
{ "type": "Feature", "properties": { "OBJECTID": 10, "NAME": "MONTLAKE", "ADDRESS": "2401 24TH AVE E", "SPECIAL": " ", "SHELTER": 1, "LABEL": "Montlake", "WEBSITE": "https://www.spl.org/hours-and-locations/montlake-branch" }, "geometry": { "type": "Point", "coordinates": [ -122.302393902757998, 47.640565718481398 ] } },
{ "type": "Feature", "properties": { "OBJECTID": 11, "NAME": "NORTHEAST", "ADDRESS": "6801 35TH AVE NE", "SPECIAL": " ", "SHELTER": 1, "LABEL": "Northeast", "WEBSITE": "https://www.spl.org/hours-and-locations/northeast-branch" }, "geometry": { "type": "Point", "coordinates": [ -122.290711288702994, 47.677853684002301 ] } },
{ "type": "Feature", "properties": { "OBJECTID": 12, "NAME": "SOUTHWEST", "ADDRESS": "9010 35TH AVE SW", "SPECIAL": " ", "SHELTER": 1, "LABEL": "Southwest", "WEBSITE": "https://www.spl.org/hours-and-locations/southwest-branch" }, "geometry": { "type": "Point", "coordinates": [ -122.376182399068995, 47.522441773077297 ] } },
{ "type": "Feature", "properties": { "OBJECTID": 13, "NAME": "WEST SEATTLE", "ADDRESS": "2306 42ND AVE SW", "SPECIAL": " ", "SHELTER": 1, "LABEL": "West Seattle", "WEBSITE": "https://www.spl.org/hours-and-locations/west-seattle-branch" }, "geometry": { "type": "Point", "coordinates": [ -122.384757452726006, 47.582694836109603 ] } },
{ "type": "Feature", "properties": { "OBJECTID": 14, "NAME": "BEACON HILL", "ADDRESS": "2821 BEACON AVE S", "SPECIAL": " ", "SHELTER": 1, "LABEL": "Beacon Hill", "WEBSITE": "https://www.spl.org/hours-and-locations/beacon-hill-branch" }, "geometry": { "type": "Point", "coordinates": [ -122.311407090968999, 47.578045899060598 ] } },
{ "type": "Feature", "properties": { "OBJECTID": 15, "NAME": "COLUMBIA", "ADDRESS": "4721 RAINIER AVE S", "SPECIAL": " ", "SHELTER": 1, "LABEL": "Columbia", "WEBSITE": "https://www.spl.org/hours-and-locations/columbia-branch" }, "geometry": { "type": "Point", "coordinates": [ -122.286879244798001, 47.559947168735398 ] } },
{ "type": "Feature", "properties": { "OBJECTID": 16, "NAME": "RAINIER BEACH", "ADDRESS": "9125 RAINIER AVE S", "SPECIAL": " ", "SHELTER": 1, "LABEL": "Rainier Beach", "WEBSITE": "https://www.spl.org/hours-and-locations/rainier-beach-branch" }, "geometry": { "type": "Point", "coordinates": [ -122.270465116441002, 47.521356231050099 ] } },
{ "type": "Feature", "properties": { "OBJECTID": 18, "NAME": "WALLINGFORD", "ADDRESS": "1501 N 45TH ST", "SPECIAL": " ", "SHELTER": 1, "LABEL": "Wallingford", "WEBSITE": "https://www.spl.org/hours-and-locations/wallingford-branch" }, "geometry": { "type": "Point", "coordinates": [ -122.339104421204993, 47.661173686015502 ] } },
{ "type": "Feature", "properties": { "OBJECTID": 19, "NAME": "DOUGLASS-TRUTH", "ADDRESS": "2300 E YESLER WAY", "SPECIAL": " ", "SHELTER": 1, "LABEL": "Douglass-Truth", "WEBSITE": "https://www.spl.org/hours-and-locations/douglass-truth-branch" }, "geometry": { "type": "Point", "coordinates": [ -122.301831580485, 47.601903211248803 ] } },
{ "type": "Feature", "properties": { "OBJECTID": 20, "NAME": "CAPITOL HILL", "ADDRESS": "425 HARVARD AVE E", "SPECIAL": " ", "SHELTER": 1, "LABEL": "Capitol Hill", "WEBSITE": "https://www.spl.org/hours-and-locations/capitol-hill-branch" }, "geometry": { "type": "Point", "coordinates": [ -122.322451451692999, 47.622913979272901 ] } },
{ "type": "Feature", "properties": { "OBJECTID": 21, "NAME": "NEWHOLLY", "ADDRESS": "7058 32ND AVE S", "SPECIAL": " ", "SHELTER": 1, "LABEL": "NewHolly", "WEBSITE": "https://www.spl.org/hours-and-locations/newholly-branch" }, "geometry": { "type": "Point", "coordinates": [ -122.290951178994007, 47.538993802827903 ] } },
{ "type": "Feature", "properties": { "OBJECTID": 22, "NAME": "HIGH POINT", "ADDRESS": "3411 SW RAYMOND ST", "SPECIAL": " ", "SHELTER": 1, "LABEL": "High Point", "WEBSITE": "https://www.spl.org/hours-and-locations/high-point-branch" }, "geometry": { "type": "Point", "coordinates": [ -122.375813894144002, 47.548041568375602 ] } },
{ "type": "Feature", "properties": { "OBJECTID": 23, "NAME": "CENTRAL", "ADDRESS": "1000 4TH AVE", "SPECIAL": " ", "SHELTER": 0, "LABEL": "Central", "WEBSITE": "https://www.spl.org/hours-and-locations/central-library" }, "geometry": { "type": "Point", "coordinates": [ -122.332968268870005, 47.6064852814308 ] } },
{ "type": "Feature", "properties": { "OBJECTID": 24, "NAME": "DELRIDGE", "ADDRESS": "5423 DELRIDGE WAY SW", "SPECIAL": " ", "SHELTER": 1, "LABEL": "Delridge", "WEBSITE": "https://www.spl.org/hours-and-locations/delridge-branch" }, "geometry": { "type": "Point", "coordinates": [ -122.363318628014, 47.5530473957105 ] } },
{ "type": "Feature", "properties": { "OBJECTID": 25, "NAME": "NORTHGATE", "ADDRESS": "10548 5TH AVE NE", "SPECIAL": " ", "SHELTER": 0, "LABEL": "Northgate", "WEBSITE": "https://www.spl.org/hours-and-locations/northgate-branch" }, "geometry": { "type": "Point", "coordinates": [ -122.322677488723002, 47.706193279212798 ] } },
{ "type": "Feature", "properties": { "OBJECTID": 26, "NAME": "MOBILE SERVICES", "ADDRESS": "2025 9TH AVE", "SPECIAL": "X", "SHELTER": 0, "LABEL": null, "WEBSITE": "https://www.spl.org/programs-and-services/outreach/mobile-library-services" }, "geometry": { "type": "Point", "coordinates": [ -122.337024779271005, 47.616803874459002 ] } },
{ "type": "Feature", "properties": { "OBJECTID": 27, "NAME": "INTL. DISTRICT / CHINATOWN", "ADDRESS": "713 8TH AVE S", "SPECIAL": " ", "SHELTER": 0, "LABEL": "Intl District / Chinatown", "WEBSITE": "https://www.spl.org/hours-and-locations/international-district-chinatown-branch" }, "geometry": { "type": "Point", "coordinates": [ -122.322834230786995, 47.596249123977799 ] } },
{ "type": "Feature", "properties": { "OBJECTID": 28, "NAME": "BALLARD", "ADDRESS": "5614 22ND AVE NW", "SPECIAL": " ", "SHELTER": 1, "LABEL": "Ballard", "WEBSITE": "https://www.spl.org/hours-and-locations/ballard-branch" }, "geometry": { "type": "Point", "coordinates": [ -122.384203803543002, 47.669843203001498 ] } },
{ "type": "Feature", "properties": { "OBJECTID": 29, "NAME": "SOUTH PARK", "ADDRESS": "8604 8TH AVE S", "SPECIAL": " ", "SHELTER": 0, "LABEL": "South Park", "WEBSITE": "https://www.spl.org/hours-and-locations/south-park-branch" }, "geometry": { "type": "Point", "coordinates": [ -122.322591182376996, 47.526265163121302 ] } }
]
}
