{
"type": "FeatureCollection",
"name": "seattle_libraries",
"crs": { "type": "name", "properties": { "name": "urn:ogc:def:crs:OGC:1.3:CRS84" } },
"features": [
{ "type": "Feature", "properties": { "NAME": "BROADVIEW" }, "geometry": { "type": "Point", "coordinates": [ -122.35603204230199, 47.723004173426901 ] } },
{ "type": "Feature", "properties": { "NAME": "LAKE CITY" }, "geometry": { "type": "Point", "coordinates": [ -122.298087010458019, 47.719861028133593 ] } },
{ "type": "Feature", "properties": { "NAME": "MAGNOLIA" }, "geometry": { "type": "Point", "coordinates": [ -122.401343582303014, 47.645316100946005 ] } },
{ "type": "Feature", "properties": { "NAME": "QUEEN ANNE" }, "geometry": { "type": "Point", "coordinates": [ -122.362744475846995, 47.633781296702502 ] } },
{ "type": "Feature", "properties": { "NAME": "FREMONT" }, "geometry": { "type": "Point", "coordinates": [ -122.348399923651982, 47.650067894893191 ] } },
{ "type": "Feature", "properties": { "NAME": "GREEN LAKE" }, "geometry": { "type": "Point", "coordinates": [ -122.32671673966702, 47.6815007844829 ] } },
{ "type": "Feature", "properties": { "NAME": "GREENWOOD" }, "geometry": { "type": "Point", "coordinates": [ -122.35496453559999, 47.687497056258103 ] } },
{ "type": "Feature", "properties": { "NAME": "UNIVERSITY" }, "geometry": { "type": "Point", "coordinates": [ -122.317868191897006, 47.665236189923398 ] } },
{ "type": "Feature", "properties": { "NAME": "MADRONA-SALLY GOLDMARK" }, "geometry": { "type": "Point", "coordinates": [ -122.290014064852002, 47.612674185110308 ] } },
{ "type": "Feature", "properties": { "NAME": "MONTLAKE" }, "geometry": { "type": "Point", "coordinates": [ -122.302393902757998, 47.640565718481383 ] } },
{ "type": "Feature", "properties": { "NAME": "NORTHEAST" }, "geometry": { "type": "Point", "coordinates": [ -122.290711288703008, 47.677853684002301 ] } },
{ "type": "Feature", "properties": { "NAME": "SOUTHWEST" }, "geometry": { "type": "Point", "coordinates": [ -122.376182399068995, 47.522441773077297 ] } },
{ "type": "Feature", "properties": { "NAME": "WEST SEATTLE" }, "geometry": { "type": "Point", "coordinates": [ -122.384757452726006, 47.582694836109589 ] } },
{ "type": "Feature", "properties": { "NAME": "BEACON HILL" }, "geometry": { "type": "Point", "coordinates": [ -122.311407090968999, 47.578045899060598 ] } },
{ "type": "Feature", "properties": { "NAME": "COLUMBIA" }, "geometry": { "type": "Point", "coordinates": [ -122.286879244798001, 47.559947168735398 ] } },
{ "type": "Feature", "properties": { "NAME": "RAINIER BEACH" }, "geometry": { "type": "Point", "coordinates": [ -122.270465116441002, 47.521356231050085 ] } },
{ "type": "Feature", "properties": { "NAME": "WALLINGFORD" }, "geometry": { "type": "Point", "coordinates": [ -122.339104421204993, 47.661173686015502 ] } },
{ "type": "Feature", "properties": { "NAME": "DOUGLASS-TRUTH" }, "geometry": { "type": "Point", "coordinates": [ -122.301831580485015, 47.601903211248796 ] } },
{ "type": "Feature", "properties": { "NAME": "CAPITOL HILL" }, "geometry": { "type": "Point", "coordinates": [ -122.322451451693013, 47.622913979272901 ] } },
{ "type": "Feature", "properties": { "NAME": "NEWHOLLY" }, "geometry": { "type": "Point", "coordinates": [ -122.290951178994007, 47.538993802827896 ] } },
{ "type": "Feature", "properties": { "NAME": "HIGH POINT" }, "geometry": { "type": "Point", "coordinates": [ -122.375813894144002, 47.548041568375609 ] } },
{ "type": "Feature", "properties": { "NAME": "CENTRAL" }, "geometry": { "type": "Point", "coordinates": [ -122.332968268870005, 47.606485281430793 ] } },
{ "type": "Feature", "properties": { "NAME": "DELRIDGE" }, "geometry": { "type": "Point", "coordinates": [ -122.363318628014, 47.553047395710493 ] } },
{ "type": "Feature", "properties": { "NAME": "NORTHGATE" }, "geometry": { "type": "Point", "coordinates": [ -122.322677488723016, 47.706193279212798 ] } },
{ "type": "Feature", "properties": { "NAME": "MOBILE SERVICES" }, "geometry": { "type": "Point", "coordinates": [ -122.33702477927099, 47.616803874458995 ] } },
{ "type": "Feature", "properties": { "NAME": "INTL. DISTRICT / CHINATOWN" }, "geometry": { "type": "Point", "coordinates": [ -122.322834230786981, 47.596249123977792 ] } },
{ "type": "Feature", "properties": { "NAME": "BALLARD" }, "geometry": { "type": "Point", "coordinates": [ -122.384203803542988, 47.669843203001506 ] } },
{ "type": "Feature", "properties": { "NAME": "SOUTH PARK" }, "geometry": { "type": "Point", "coordinates": [ -122.322591182376996, 47.526265163121302 ] } }
]
}
