{
"type": "FeatureCollection",
"name": "tacoma_libraries",
"crs": { "type": "name", "properties": { "name": "urn:ogc:def:crs:OGC:1.3:CRS84" } },
"features": [
{ "type": "Feature", "properties": { "name": "Moore Library" }, "geometry": { "type": "Point", "coordinates": [ -122.43582589377985, 47.206700448292246 ] } },
{ "type": "Feature", "properties": { "name": "Main Branch Tacoma Public Library" }, "geometry": { "type": "Point", "coordinates": [ -122.444780045045846, 47.252296377812414 ] } },
{ "type": "Feature", "properties": { "name": "Kobetich Library" }, "geometry": { "type": "Point", "coordinates": [ -122.386410324996504, 47.288000292032095 ] } },
{ "type": "Feature", "properties": { "name": "Tacoma Public Library - Swasey Branch" }, "geometry": { "type": "Point", "coordinates": [ -122.530444175970786, 47.255828156877207 ] } },
{ "type": "Feature", "properties": { "name": "Wheelock Tacoma Public Library" }, "geometry": { "type": "Point", "coordinates": [ -122.486513680488216, 47.270804869789515 ] } },
{ "type": "Feature", "properties": { "name": "Mottet Library" }, "geometry": { "type": "Point", "coordinates": [ -122.421893906573601, 47.228757349196222 ] } },
{ "type": "Feature", "properties": { "name": "Fern Hill Library" }, "geometry": { "type": "Point", "coordinates": [ -122.442896059880169, 47.181528208497433 ] } },
{ "type": "Feature", "properties": { "name": "South Tacoma Library" }, "geometry": { "type": "Point", "coordinates": [ -122.48204805809479, 47.206411761460224 ] } }
]
}
