{
"type": "FeatureCollection",
"name": "tacoma_facilities",
"crs": { "type": "name", "properties": { "name": "urn:ogc:def:crs:OGC:1.3:CRS84" } },
"features": [
{ "type": "Feature", "properties": { "name": "Moore Library" }, "geometry": { "type": "Point", "coordinates": [ -122.435825893788191, 47.206700447831096 ] } },
{ "type": "Feature", "properties": { "name": "Main Branch Tacoma Public Library" }, "geometry": { "type": "Point", "coordinates": [ -122.444780045411676, 47.252296378382418 ] } },
{ "type": "Feature", "properties": { "name": "Kobetich Library" }, "geometry": { "type": "Point", "coordinates": [ -122.386410324991147, 47.288000292052871 ] } },
{ "type": "Feature", "properties": { "name": "Tacoma Public Library - Swasey Branch" }, "geometry": { "type": "Point", "coordinates": [ -122.530444175990866, 47.255828156832123 ] } },
{ "type": "Feature", "properties": { "name": "Wheelock Tacoma Public Library" }, "geometry": { "type": "Point", "coordinates": [ -122.486513680486638, 47.270804869271245 ] } },
{ "type": "Feature", "properties": { "name": "Mottet Library" }, "geometry": { "type": "Point", "coordinates": [ -122.421893906697278, 47.228757349343731 ] } },
{ "type": "Feature", "properties": { "name": "Fern Hill Library" }, "geometry": { "type": "Point", "coordinates": [ -122.442896059878592, 47.181528208597705 ] } },
{ "type": "Feature", "properties": { "name": "South Tacoma Library" }, "geometry": { "type": "Point", "coordinates": [ -122.482048058070646, 47.206411761358162 ] } }
]
}
