{
"type": "FeatureCollection",
"name": "tacoma_boundary",
"crs": { "type": "name", "properties": { "name": "urn:ogc:def:crs:OGC:1.3:CRS84" } },
"features": [
{ "type": "Feature", "properties": { "bbox_west": -122.5621078, "bbox_south": 47.1668108, "bbox_east": -122.3481499, "bbox_north": 47.31898, "place_id": 325273747, "osm_type": "relation", "osm_id": 8348295, "lat": 47.2455013, "lon": -122.438329, "class": "boundary", "type": "administrative", "place_rank": 16, "importance": 0.61681676023206577, "addresstype": "city", "name": "Tacoma", "display_name": "Tacoma, Pierce County, Washington, United States" }, "geometry": { "type": "MultiPolygon", "coordinates": [ [ [ [ -122.5621078, 47.2363575 ], [ -122.5613726, 47.2363475 ], [ -122.5605494, 47.2363429 ], [ -122.5605426, 47.2363429 ], [ -122.5605395, 47.2364676 ], [ -122.5600575, 47.2364619 ], [ -122.5599228, 47.2364596 ], [ -122.5583647, 47.2364707 ], [ -122.5583267, 47.235429 ], [ -122.557403, 47.235426 ], [ -122.557083, 47.235427 ], [ -122.556963, 47.235387 ], [ -122.55679, 47.235353 ], [ -122.556712, 47.235349 ], [ -122.556518, 47.23534 ], [ -122.5556796, 47.2353239 ], [ -122.555082, 47.235308 ], [ -122.554784, 47.2353043 ], [ -122.5544072, 47.2352997 ], [ -122.5534956, 47.2352885 ], [ -122.553047, 47.235283 ], [ -122.5523983, 47.2352903 ], [ -122.552394, 47.2358476 ], [ -122.5530261, 47.2358488 ], [ -122.5529481, 47.240217 ], [ -122.5509787, 47.2402 ], [ -122.5509951, 47.2416004 ], [ -122.5514772, 47.2416025 ], [ -122.5514717, 47.242631 ], [ -122.5514714, 47.2426815 ], [ -122.550908, 47.242679 ], [ -122.550309, 47.242681 ], [ -122.5494562, 47.2426829 ], [ -122.548936, 47.242685 ], [ -122.548933, 47.239921 ], [ -122.54769, 47.239838 ], [ -122.547689, 47.240123 ], [ -122.546133, 47.240119 ], [ -122.546133, 47.240519 ], [ -122.546734, 47.240518 ], [ -122.546651, 47.242219 ], [ -122.546639, 47.242678 ], [ -122.546354, 47.242678 ], [ -122.545739, 47.242679 ], [ -122.54502, 47.242678 ], [ -122.54236, 47.24268 ], [ -122.5410731, 47.242676 ], [ -122.541042, 47.242682 ], [ -122.541033, 47.241724 ], [ -122.541735, 47.241722 ], [ -122.5417388, 47.2413291 ], [ -122.541737, 47.24122 ], [ -122.540074, 47.24118 ], [ -122.539803, 47.241165 ], [ -122.539803, 47.241193 ], [ -122.539803, 47.241278 ], [ -122.53978, 47.241798 ], [ -122.5397909, 47.2418928 ], [ -122.539773, 47.241973 ], [ -122.537059, 47.241909 ], [ -122.537057, 47.242681 ], [ -122.535729, 47.242685 ], [ -122.5357071, 47.2419049 ], [ -122.534343, 47.2419135 ], [ -122.534339, 47.242689 ], [ -122.534266, 47.242691 ], [ -122.5330819, 47.2426923 ], [ -122.532465, 47.242693 ], [ -122.531204, 47.242696 ], [ -122.5310795, 47.2427005 ], [ -122.530127, 47.242698 ], [ -122.5293256, 47.2427006 ], [ -122.5290931, 47.2427013 ], [ -122.5290014, 47.2427015 ], [ -122.5284114, 47.2427032 ], [ -122.5280756, 47.2427042 ], [ -122.5273272, 47.2427195 ], [ -122.526408, 47.242709 ], [ -122.5263436, 47.2427302 ], [ -122.5246624, 47.2427261 ], [ -122.5244041, 47.2427261 ], [ -122.523819, 47.242725 ], [ -122.52231, 47.2427342 ], [ -122.521198, 47.242741 ], [ -122.520139, 47.242751 ], [ -122.5183053, 47.2427707 ], [ -122.517074, 47.242784 ], [ -122.5160926, 47.2428004 ], [ -122.5160732, 47.2428005 ], [ -122.5159395, 47.2428012 ], [ -122.5158008, 47.2428012 ], [ -122.5150084, 47.2427914 ], [ -122.5148748, 47.2427897 ], [ -122.5143222, 47.2427986 ], [ -122.5137244, 47.2428021 ], [ -122.5135043, 47.2428057 ], [ -122.512951, 47.242814 ], [ -122.511768, 47.242829 ], [ -122.511619, 47.242831 ], [ -122.5109746, 47.2428389 ], [ -122.5106503, 47.242844 ], [ -122.510306, 47.242848 ], [ -122.509512, 47.242858 ], [ -122.5091349, 47.2428627 ], [ -122.508776, 47.2428671 ], [ -122.506186, 47.2428715 ], [ -122.505942, 47.2428727 ], [ -122.5055335, 47.2428747 ], [ -122.5053819, 47.2428762 ], [ -122.5053038, 47.2427021 ], [ -122.5051821, 47.2424494 ], [ -122.5050229, 47.2420077 ], [ -122.504985, 47.241709 ], [ -122.504996, 47.2411161 ], [ -122.5049981, 47.240832 ], [ -122.505022, 47.240563 ], [ -122.5050198, 47.23961 ], [ -122.5050167, 47.2395629 ], [ -122.5050196, 47.2393163 ], [ -122.505028, 47.238614 ], [ -122.5050337, 47.2381433 ], [ -122.5050403, 47.2375929 ], [ -122.5050412, 47.2375208 ], [ -122.5050532, 47.2360061 ], [ -122.505055, 47.2359653 ], [ -122.5050791, 47.2350419 ], [ -122.505092, 47.2342115 ], [ -122.5050925, 47.233629 ], [ -122.5050954, 47.2332611 ], [ -122.5051028, 47.2327872 ], [ -122.5051111, 47.2324489 ], [ -122.5051166, 47.2320061 ], [ -122.505113, 47.230672 ], [ -122.505129, 47.229889 ], [ -122.505139, 47.229471 ], [ -122.50515, 47.228418 ], [ -122.505151, 47.228306 ], [ -122.505122, 47.226505 ], [ -122.505126, 47.225984 ], [ -122.505149, 47.22289 ], [ -122.505149, 47.222821 ], [ -122.5051522, 47.2211285 ], [ -122.505152, 47.22107 ], [ -122.50518, 47.219305 ], [ -122.5051849, 47.2189439 ], [ -122.505185, 47.218935 ], [ -122.5051975, 47.217433 ], [ -122.505232, 47.215294 ], [ -122.505233, 47.215239 ], [ -122.505235, 47.215048 ], [ -122.5052381, 47.2142658 ], [ -122.50524, 47.213799 ], [ -122.505245, 47.21246 ], [ -122.5052457, 47.2122732 ], [ -122.505248, 47.21163 ], [ -122.505251, 47.210966 ], [ -122.505255, 47.209914 ], [ -122.505257, 47.209441 ], [ -122.5052596, 47.2093742 ], [ -122.5052495, 47.2084919 ], [ -122.5052535, 47.2084197 ], [ -122.5052555, 47.2083839 ], [ -122.5052559, 47.2079869 ], [ -122.5052492, 47.2075051 ], [ -122.5052464, 47.2073649 ], [ -122.5052481, 47.2072742 ], [ -122.5052571, 47.2071998 ], [ -122.5052767, 47.2070782 ], [ -122.5052912, 47.2069964 ], [ -122.5053008, 47.206931 ], [ -122.5053555, 47.2065049 ], [ -122.505417, 47.206279 ], [ -122.505499, 47.206065 ], [ -122.5055786, 47.2058793 ], [ -122.505618, 47.205819 ], [ -122.5056521, 47.2057618 ], [ -122.505714, 47.205658 ], [ -122.5058351, 47.2054974 ], [ -122.5059233, 47.2053804 ], [ -122.5059674, 47.2053218 ], [ -122.506182, 47.2050724 ], [ -122.506538, 47.204702 ], [ -122.506918, 47.204333 ], [ -122.50747, 47.203797 ], [ -122.507742, 47.203521 ], [ -122.5077563, 47.2035244 ], [ -122.507981, 47.203251 ], [ -122.508198, 47.202932 ], [ -122.508221, 47.20289 ], [ -122.507718, 47.202876 ], [ -122.506284, 47.202871 ], [ -122.5063215, 47.2016931 ], [ -122.505973, 47.2016931 ], [ -122.5052383, 47.2016932 ], [ -122.5052335, 47.1991843 ], [ -122.5052185, 47.1974013 ], [ -122.5052453, 47.1942666 ], [ -122.5088073, 47.1942775 ], [ -122.5088383, 47.1986956 ], [ -122.5088329, 47.199163 ], [ -122.5088333, 47.1992407 ], [ -122.5180494, 47.1991874 ], [ -122.518049, 47.1990427 ], [ -122.5187303, 47.1988605 ], [ -122.519028, 47.1988514 ], [ -122.5195564, 47.1990318 ], [ -122.5196474, 47.1991772 ], [ -122.5204521, 47.1991719 ], [ -122.5212699, 47.1991667 ], [ -122.5212701, 47.1992049 ], [ -122.5215049, 47.1990395 ], [ -122.5215612, 47.1988564 ], [ -122.5214056, 47.1986833 ], [ -122.5212669, 47.198625 ], [ -122.5212531, 47.1981421 ], [ -122.5212389, 47.1976416 ], [ -122.521225, 47.1959867 ], [ -122.5210311, 47.1955882 ], [ -122.515808, 47.1955675 ], [ -122.515794, 47.192515 ], [ -122.5149803, 47.1918825 ], [ -122.5096889, 47.1918644 ], [ -122.5087613, 47.1918593 ], [ -122.5087823, 47.190574 ], [ -122.5082128, 47.1905678 ], [ -122.50545, 47.190537 ], [ -122.505077, 47.190536 ], [ -122.504962, 47.190536 ], [ -122.504962, 47.190065 ], [ -122.504962, 47.187846 ], [ -122.5049893, 47.1847252 ], [ -122.498304, 47.184709 ], [ -122.497524, 47.184709 ], [ -122.492754, 47.184734 ], [ -122.488835, 47.18472 ], [ -122.4866997, 47.1847468 ], [ -122.4835114, 47.1847533 ], [ -122.4821897, 47.1847562 ], [ -122.4809881, 47.1847688 ], [ -122.47905, 47.1847762 ], [ -122.4770929, 47.1847814 ], [ -122.473802, 47.1847956 ], [ -122.4737995, 47.1847128 ], [ -122.4725187, 47.1846946 ], [ -122.4693999, 47.1846629 ], [ -122.4672077, 47.1846397 ], [ -122.4652264, 47.1846187 ], [ -122.4652516, 47.184603 ], [ -122.464814, 47.1845977 ], [ -122.4647892, 47.1846971 ], [ -122.4644975, 47.1846934 ], [ -122.4631991, 47.1846769 ], [ -122.4632081, 47.184259 ], [ -122.4632281, 47.1833259 ], [ -122.4632382, 47.1828565 ], [ -122.4632313, 47.1823823 ], [ -122.4632302, 47.1823069 ], [ -122.4632243, 47.1819029 ], [ -122.463221, 47.1817518 ], [ -122.4632201, 47.1816351 ], [ -122.4632196, 47.1815754 ], [ -122.4632119, 47.1810489 ], [ -122.4632111, 47.1807819 ], [ -122.4645313, 47.1807873 ], [ -122.4649068, 47.1794456 ], [ -122.4642256, 47.1794492 ], [ -122.4640619, 47.1794419 ], [ -122.4638447, 47.1793708 ], [ -122.4631997, 47.1793677 ], [ -122.4631997, 47.1793581 ], [ -122.463199, 47.1792236 ], [ -122.4631983, 47.1791001 ], [ -122.4640233, 47.1791019 ], [ -122.4640219, 47.1790372 ], [ -122.4641601, 47.1790368 ], [ -122.4642513, 47.1790258 ], [ -122.4643398, 47.1790076 ], [ -122.4644578, 47.1789711 ], [ -122.4645892, 47.1789164 ], [ -122.4647233, 47.1788271 ], [ -122.4648172, 47.1787396 ], [ -122.4648762, 47.1786685 ], [ -122.4651176, 47.17821 ], [ -122.465493, 47.177421 ], [ -122.465613, 47.17715 ], [ -122.465678, 47.177015 ], [ -122.465747, 47.176881 ], [ -122.465828, 47.176731 ], [ -122.465904, 47.176599 ], [ -122.465984, 47.176468 ], [ -122.466066, 47.176337 ], [ -122.466086, 47.176302 ], [ -122.4661822, 47.1761603 ], [ -122.467551, 47.174502 ], [ -122.468401, 47.1738386 ], [ -122.4684144, 47.1720165 ], [ -122.4684137, 47.1701188 ], [ -122.4665472, 47.1701005 ], [ -122.4656909, 47.1700903 ], [ -122.4657774, 47.1668272 ], [ -122.4640911, 47.1668108 ], [ -122.4640857, 47.1692852 ], [ -122.4640616, 47.1701154 ], [ -122.4550507, 47.1701227 ], [ -122.4509308, 47.17013 ], [ -122.4446625, 47.1700452 ], [ -122.4439816, 47.1700414 ], [ -122.4393839, 47.170016 ], [ -122.4354169, 47.1699713 ], [ -122.4354491, 47.1681551 ], [ -122.4355671, 47.1681551 ], [ -122.4355645, 47.1679536 ], [ -122.435563, 47.16712 ], [ -122.4341239, 47.167158 ], [ -122.434117, 47.167528 ], [ -122.431456, 47.16742 ], [ -122.431448, 47.16842 ], [ -122.434104, 47.16842 ], [ -122.4341027, 47.1684548 ], [ -122.4340388, 47.1702023 ], [ -122.433134, 47.170047 ], [ -122.4320832, 47.1700384 ], [ -122.43142, 47.170033 ], [ -122.4298171, 47.1700293 ], [ -122.428834, 47.170027 ], [ -122.428831, 47.169907 ], [ -122.428091, 47.170032 ], [ -122.427586, 47.170031 ], [ -122.427546, 47.170031 ], [ -122.4272516, 47.170033 ], [ -122.426356, 47.170039 ], [ -122.426226, 47.170045 ], [ -122.42584, 47.170054 ], [ -122.425278, 47.170085 ], [ -122.4249498, 47.1700867 ], [ -122.424882, 47.170087 ], [ -122.423552, 47.170086 ], [ -122.422243, 47.170087 ], [ -122.4216221, 47.170082 ], [ -122.42153, 47.170082 ], [ -122.420966, 47.170098 ], [ -122.420966, 47.171011 ], [ -122.420966, 47.171383 ], [ -122.420954, 47.1730018 ], [ -122.420953, 47.17316 ], [ -122.420952, 47.173256 ], [ -122.420458, 47.173253 ], [ -122.420115, 47.173306 ], [ -122.420075, 47.174424 ], [ -122.420318, 47.174421 ], [ -122.4204934, 47.174421 ], [ -122.420943, 47.174421 ], [ -122.420941, 47.175847 ], [ -122.420942, 47.177226 ], [ -122.420712, 47.177471 ], [ -122.42095, 47.179065 ], [ -122.420955, 47.179987 ], [ -122.420982, 47.18036 ], [ -122.420981, 47.180889 ], [ -122.420961, 47.182093 ], [ -122.420969, 47.182702 ], [ -122.4209929, 47.18308 ], [ -122.420978, 47.184439 ], [ -122.420978, 47.184517 ], [ -122.4209647, 47.186507 ], [ -122.4209647, 47.1865144 ], [ -122.4209646, 47.1865169 ], [ -122.4209646, 47.1865207 ], [ -122.4209579, 47.1875247 ], [ -122.4209562, 47.1877645 ], [ -122.420954, 47.1880662 ], [ -122.420952, 47.188136 ], [ -122.420953, 47.189044 ], [ -122.4209538, 47.1890868 ], [ -122.4209433, 47.1897134 ], [ -122.4209406, 47.1899011 ], [ -122.420936, 47.190218 ], [ -122.4209374, 47.1902556 ], [ -122.4209356, 47.1909164 ], [ -122.4209289, 47.1911926 ], [ -122.420928, 47.191234 ], [ -122.4209501, 47.1914239 ], [ -122.42096, 47.1918 ], [ -122.4195508, 47.1917591 ], [ -122.419101, 47.191746 ], [ -122.417774, 47.191747 ], [ -122.4176035, 47.1917351 ], [ -122.4173976, 47.1917352 ], [ -122.415643, 47.191747 ], [ -122.415422, 47.191747 ], [ -122.4149626, 47.1917485 ], [ -122.413583, 47.191746 ], [ -122.412964, 47.191746 ], [ -122.4120021, 47.191738 ], [ -122.411448, 47.191735 ], [ -122.4112234, 47.1917345 ], [ -122.4111492, 47.1917343 ], [ -122.4111655, 47.1898038 ], [ -122.4104584, 47.1898067 ], [ -122.4104566, 47.1896146 ], [ -122.4104576, 47.1895195 ], [ -122.4082998, 47.1895433 ], [ -122.4077635, 47.1895492 ], [ -122.4077566, 47.1896426 ], [ -122.4077504, 47.1897265 ], [ -122.4077463, 47.1905103 ], [ -122.4077427, 47.1911956 ], [ -122.407742, 47.191327 ], [ -122.4077418, 47.1913661 ], [ -122.4077417, 47.1913933 ], [ -122.4077408, 47.1915626 ], [ -122.407734, 47.191738 ], [ -122.4071888, 47.1917405 ], [ -122.4071062, 47.1917412 ], [ -122.4068011, 47.1917396 ], [ -122.4065263, 47.1917389 ], [ -122.406434, 47.1917387 ], [ -122.4059403, 47.1917414 ], [ -122.4058638, 47.1917415 ], [ -122.405198, 47.191748 ], [ -122.4050801, 47.1917477 ], [ -122.4047737, 47.191747 ], [ -122.403911, 47.191745 ], [ -122.402476, 47.191741 ], [ -122.4005046, 47.191741 ], [ -122.3998941, 47.1917396 ], [ -122.399853, 47.191741 ], [ -122.398721, 47.191739 ], [ -122.397832, 47.191737 ], [ -122.3970947, 47.1917445 ], [ -122.396256, 47.191753 ], [ -122.395908, 47.191752 ], [ -122.394596, 47.191755 ], [ -122.3947, 47.191907 ], [ -122.394887, 47.192167 ], [ -122.394931, 47.192418 ], [ -122.394771, 47.194076 ], [ -122.394667, 47.19482 ], [ -122.394813, 47.195604 ], [ -122.394729, 47.195823 ], [ -122.3945399, 47.1989602 ], [ -122.39454, 47.199125 ], [ -122.394489, 47.199535 ], [ -122.394318, 47.200987 ], [ -122.394033, 47.206147 ], [ -122.393666, 47.220887 ], [ -122.393484, 47.222422 ], [ -122.393238, 47.223049 ], [ -122.3931249, 47.2239243 ], [ -122.393045, 47.224542 ], [ -122.392934, 47.225788 ], [ -122.392934, 47.226015 ], [ -122.392904, 47.227287 ], [ -122.39262, 47.229126 ], [ -122.392719, 47.230424 ], [ -122.392694, 47.230669 ], [ -122.392649, 47.231105 ], [ -122.392618, 47.231373 ], [ -122.39253, 47.235523 ], [ -122.392431, 47.23569 ], [ -122.3923359, 47.2358749 ], [ -122.3921243, 47.236097 ], [ -122.3925703, 47.23627 ], [ -122.3926123, 47.236301 ], [ -122.3951553, 47.238187 ], [ -122.3966613, 47.239282 ], [ -122.3974923, 47.239621 ], [ -122.3985583, 47.240033 ], [ -122.3987269, 47.2400829 ], [ -122.3995379, 47.2402746 ], [ -122.399598, 47.2443234 ], [ -122.3995848, 47.2446547 ], [ -122.3972063, 47.244662 ], [ -122.3972063, 47.244388 ], [ -122.3961603, 47.244388 ], [ -122.3961833, 47.24506 ], [ -122.3942643, 47.245066 ], [ -122.3942643, 47.244566 ], [ -122.3911303, 47.244456 ], [ -122.3856645, 47.2444085 ], [ -122.3856575, 47.2446585 ], [ -122.3856537, 47.2448338 ], [ -122.3856412, 47.2453158 ], [ -122.3856311, 47.2458305 ], [ -122.385628, 47.2459914 ], [ -122.3856193, 47.246355 ], [ -122.3856223, 47.246586 ], [ -122.3843743, 47.246613 ], [ -122.3825383, 47.246583 ], [ -122.3815303, 47.246628 ], [ -122.3806683, 47.246618 ], [ -122.3806573, 47.246371 ], [ -122.3805823, 47.245408 ], [ -122.3774473, 47.245409 ], [ -122.3774473, 47.244778 ], [ -122.3765993, 47.24479 ], [ -122.3730237, 47.2447908 ], [ -122.3730073, 47.24529 ], [ -122.3730563, 47.246305 ], [ -122.3726913, 47.246285 ], [ -122.3695563, 47.246271 ], [ -122.3674323, 47.246261 ], [ -122.3673341, 47.2462555 ], [ -122.3661413, 47.246261 ], [ -122.3648203, 47.246248 ], [ -122.3642103, 47.2462435 ], [ -122.3635824, 47.2462442 ], [ -122.3634499, 47.246243 ], [ -122.3599791, 47.2462126 ], [ -122.3598103, 47.2462111 ], [ -122.3595679, 47.246209 ], [ -122.3588038, 47.246201 ], [ -122.3588123, 47.246874 ], [ -122.3589553, 47.249934 ], [ -122.3589743, 47.250879 ], [ -122.3590003, 47.251614 ], [ -122.3591793, 47.251614 ], [ -122.3591793, 47.252134 ], [ -122.3590143, 47.252134 ], [ -122.3590383, 47.253034 ], [ -122.3598573, 47.25299 ], [ -122.3599633, 47.253392 ], [ -122.3599813, 47.253622 ], [ -122.3599963, 47.253741 ], [ -122.3603923, 47.253746 ], [ -122.3604873, 47.254139 ], [ -122.3600573, 47.25429 ], [ -122.3576563, 47.255147 ], [ -122.3573295, 47.2552709 ], [ -122.35744, 47.2553729 ], [ -122.3575725, 47.2554838 ], [ -122.357683, 47.2555603 ], [ -122.3588074, 47.2562815 ], [ -122.3566678, 47.2562788 ], [ -122.3566644, 47.2566959 ], [ -122.3566495, 47.257441 ], [ -122.3529743, 47.2574108 ], [ -122.3528759, 47.2574109 ], [ -122.350682, 47.257414 ], [ -122.3505464, 47.2574142 ], [ -122.3481874, 47.2574347 ], [ -122.3481499, 47.2583121 ], [ -122.3495982, 47.2583194 ], [ -122.3495789, 47.2597359 ], [ -122.3495605, 47.2610881 ], [ -122.3504619, 47.2610954 ], [ -122.3504566, 47.2622276 ], [ -122.3539756, 47.2622404 ], [ -122.3540024, 47.2610881 ], [ -122.3559873, 47.2611018 ], [ -122.355821, 47.2682132 ], [ -122.3531173, 47.2682205 ], [ -122.353069, 47.2699605 ], [ -122.3506068, 47.2699423 ], [ -122.3505853, 47.2702844 ], [ -122.3516367, 47.2703026 ], [ -122.3515884, 47.2717149 ], [ -122.355719, 47.271744 ], [ -122.3556111, 47.2773592 ], [ -122.3585143, 47.279422 ], [ -122.3716565, 47.2885561 ], [ -122.3786278, 47.2933762 ], [ -122.381043, 47.2950459 ], [ -122.3815454, 47.2953932 ], [ -122.3815923, 47.2954246 ], [ -122.3850597, 47.2978228 ], [ -122.3891871, 47.300676 ], [ -122.3914279, 47.3022248 ], [ -122.393827, 47.3038826 ], [ -122.3948216, 47.30457 ], [ -122.4005145, 47.304589 ], [ -122.4066754, 47.3046652 ], [ -122.4067602, 47.3046662 ], [ -122.4070243, 47.3046692 ], [ -122.4089437, 47.3047039 ], [ -122.4089417, 47.3049017 ], [ -122.4089488, 47.3060128 ], [ -122.4089556, 47.3070955 ], [ -122.4089605, 47.3078559 ], [ -122.4089877, 47.3121286 ], [ -122.4096656, 47.3121257 ], [ -122.4143608, 47.3121058 ], [ -122.4143659, 47.3126691 ], [ -122.4143927, 47.3156587 ], [ -122.4166963, 47.315675 ], [ -122.4167339, 47.3145621 ], [ -122.4170718, 47.3145621 ], [ -122.4170772, 47.3139362 ], [ -122.4184023, 47.3139329 ], [ -122.4184559, 47.3120294 ], [ -122.4198998, 47.3120451 ], [ -122.4219672, 47.3120437 ], [ -122.4250227, 47.3120417 ], [ -122.4250914, 47.3120435 ], [ -122.4250655, 47.3128412 ], [ -122.4250837, 47.3144353 ], [ -122.4261144, 47.3144393 ], [ -122.4264074, 47.3144402 ], [ -122.4264041, 47.3146243 ], [ -122.4265244, 47.3146252 ], [ -122.4265322, 47.3149247 ], [ -122.4265406, 47.315264 ], [ -122.4274888, 47.3152767 ], [ -122.4277221, 47.315214 ], [ -122.4277285, 47.3149145 ], [ -122.4277028, 47.3120639 ], [ -122.4294004, 47.3120691 ], [ -122.4299744, 47.312069 ], [ -122.4303656, 47.312069 ], [ -122.4304209, 47.3112755 ], [ -122.4311433, 47.3112742 ], [ -122.4312385, 47.3108822 ], [ -122.4312821, 47.3107121 ], [ -122.4313417, 47.3104657 ], [ -122.4313739, 47.3103248 ], [ -122.4313974, 47.3101465 ], [ -122.4314209, 47.3098119 ], [ -122.4314718, 47.3092613 ], [ -122.4315, 47.3091267 ], [ -122.4315241, 47.3090431 ], [ -122.4315499, 47.3089758 ], [ -122.4315697, 47.308924 ], [ -122.4316113, 47.3088439 ], [ -122.4316555, 47.3087766 ], [ -122.4316838, 47.3087405 ], [ -122.4317186, 47.308693 ], [ -122.4318218, 47.308562 ], [ -122.4319935, 47.3083129 ], [ -122.432251, 47.3079437 ], [ -122.4321511, 47.3077059 ], [ -122.4316629, 47.3070819 ], [ -122.4306759, 47.306354 ], [ -122.4306702, 47.3060261 ], [ -122.4306679, 47.3058929 ], [ -122.4306692, 47.3057747 ], [ -122.43068, 47.3056073 ], [ -122.4306893, 47.3051613 ], [ -122.4306893, 47.3048089 ], [ -122.4306893, 47.3044742 ], [ -122.4306826, 47.3040286 ], [ -122.4306679, 47.3036093 ], [ -122.4306572, 47.3031637 ], [ -122.4306504, 47.3026562 ], [ -122.4306451, 47.3024597 ], [ -122.4306384, 47.3022387 ], [ -122.430625, 47.3020205 ], [ -122.4306102, 47.3018331 ], [ -122.430688, 47.301833 ], [ -122.4314739, 47.301832 ], [ -122.4320559, 47.3018313 ], [ -122.4321055, 47.3020523 ], [ -122.4333689, 47.3020671 ], [ -122.4344404, 47.3020732 ], [ -122.4344417, 47.3020186 ], [ -122.4333743, 47.3020097 ], [ -122.4333709, 47.3016306 ], [ -122.4333001, 47.3016295 ], [ -122.4332964, 47.30115 ], [ -122.4319414, 47.3011355 ], [ -122.4318987, 47.3008726 ], [ -122.4318879, 47.3007398 ], [ -122.431892, 47.300176 ], [ -122.4320437, 47.2999686 ], [ -122.4320872, 47.2999204 ], [ -122.4321362, 47.2998758 ], [ -122.4322556, 47.2997885 ], [ -122.432383, 47.2997039 ], [ -122.4327947, 47.2994574 ], [ -122.4328456, 47.2994256 ], [ -122.4328966, 47.2993901 ], [ -122.4329529, 47.2993474 ], [ -122.4329891, 47.2993128 ], [ -122.433016, 47.2992828 ], [ -122.4330441, 47.2992455 ], [ -122.4330594, 47.2992124 ], [ -122.4330719, 47.2991739 ], [ -122.4330893, 47.2991048 ], [ -122.4330974, 47.2990502 ], [ -122.4330987, 47.2990065 ], [ -122.4330954, 47.2989595 ], [ -122.4330887, 47.2989252 ], [ -122.4330793, 47.2988947 ], [ -122.4330672, 47.2988665 ], [ -122.4330471, 47.2988319 ], [ -122.432852, 47.2985736 ], [ -122.4326696, 47.2983662 ], [ -122.4326589, 47.2983444 ], [ -122.4326562, 47.2983253 ], [ -122.4326589, 47.2983017 ], [ -122.4326663, 47.2982869 ], [ -122.4326817, 47.2982707 ], [ -122.4327038, 47.2982562 ], [ -122.4329499, 47.2981543 ], [ -122.4327366, 47.297977 ], [ -122.4326047, 47.297881 ], [ -122.4326128, 47.2974216 ], [ -122.4326141, 47.2971968 ], [ -122.4323185, 47.2971483 ], [ -122.432299, 47.297678 ], [ -122.4322266, 47.2976461 ], [ -122.4322394, 47.2971393 ], [ -122.4316763, 47.2971013 ], [ -122.4313113, 47.2970986 ], [ -122.4309016, 47.2971242 ], [ -122.4305239, 47.2971822 ], [ -122.4298321, 47.2973881 ], [ -122.4293912, 47.2975201 ], [ -122.4279984, 47.2979125 ], [ -122.4275454, 47.2979974 ], [ -122.4271384, 47.2980791 ], [ -122.4264606, 47.2981181 ], [ -122.4260955, 47.2980909 ], [ -122.425627, 47.2980825 ], [ -122.4246211, 47.2978094 ], [ -122.4244737, 47.2977243 ], [ -122.4244008, 47.2975821 ], [ -122.4240534, 47.2975007 ], [ -122.4239009, 47.2975012 ], [ -122.4231285, 47.2972577 ], [ -122.4229148, 47.2973066 ], [ -122.422837, 47.2972066 ], [ -122.4218178, 47.2969815 ], [ -122.4197605, 47.2967723 ], [ -122.419098, 47.2966358 ], [ -122.4187735, 47.2964739 ], [ -122.418524, 47.2964212 ], [ -122.4183229, 47.2962902 ], [ -122.4183577, 47.2962502 ], [ -122.418111, 47.296081 ], [ -122.4176657, 47.2961738 ], [ -122.4175363, 47.2961338 ], [ -122.4171561, 47.2960155 ], [ -122.416356, 47.2955803 ], [ -122.4161313, 47.2954709 ], [ -122.4159272, 47.2953118 ], [ -122.4148622, 47.2949222 ], [ -122.4144423, 47.2947324 ], [ -122.4141589, 47.2945804 ], [ -122.4139294, 47.2943383 ], [ -122.4136909, 47.2941986 ], [ -122.4137873, 47.2941291 ], [ -122.4133726, 47.2938636 ], [ -122.4133071, 47.2938973 ], [ -122.4131727, 47.2938374 ], [ -122.4129574, 47.2936835 ], [ -122.41277, 47.2934935 ], [ -122.4125983, 47.2933232 ], [ -122.4121988, 47.2928883 ], [ -122.4118958, 47.2926583 ], [ -122.4115363, 47.2924595 ], [ -122.4112236, 47.2921737 ], [ -122.4110009, 47.2919194 ], [ -122.4107894, 47.2917197 ], [ -122.4103392, 47.2911438 ], [ -122.4102059, 47.2910216 ], [ -122.4099967, 47.2907096 ], [ -122.4098024, 47.2905398 ], [ -122.409523, 47.2902043 ], [ -122.4092861, 47.289842 ], [ -122.4092097, 47.2896805 ], [ -122.409187, 47.289513 ], [ -122.4091917, 47.2893694 ], [ -122.4091951, 47.2892324 ], [ -122.4090933, 47.2891304 ], [ -122.4088676, 47.2889275 ], [ -122.4086332, 47.2885756 ], [ -122.4086186, 47.2884875 ], [ -122.4085135, 47.2883681 ], [ -122.4083009, 47.2881298 ], [ -122.4081583, 47.2879437 ], [ -122.40803, 47.2878173 ], [ -122.407927, 47.2877283 ], [ -122.4078288, 47.2875494 ], [ -122.4077471, 47.2874922 ], [ -122.4076996, 47.287395 ], [ -122.4076244, 47.2872354 ], [ -122.407576, 47.28707 ], [ -122.4075336, 47.2869655 ], [ -122.4074807, 47.2869274 ], [ -122.4073681, 47.2868508 ], [ -122.407234, 47.2867053 ], [ -122.4071321, 47.2865488 ], [ -122.407057, 47.2864214 ], [ -122.4070409, 47.2863341 ], [ -122.4070623, 47.2862067 ], [ -122.407057, 47.2861048 ], [ -122.4069389, 47.2859666 ], [ -122.406829, 47.285868 ], [ -122.4067726, 47.2858174 ], [ -122.4073705, 47.2853936 ], [ -122.4077428, 47.2851296 ], [ -122.4077873, 47.285098 ], [ -122.4078451, 47.2850558 ], [ -122.4077514, 47.2850012 ], [ -122.4075538, 47.2848724 ], [ -122.407447, 47.2848079 ], [ -122.4069358, 47.2844992 ], [ -122.4068396, 47.2844411 ], [ -122.4068259, 47.2844328 ], [ -122.4067681, 47.2843979 ], [ -122.4066469, 47.2844781 ], [ -122.4065719, 47.2844352 ], [ -122.4066286, 47.2843975 ], [ -122.4066366, 47.2843366 ], [ -122.406613, 47.2842938 ], [ -122.4063334, 47.2841199 ], [ -122.4054905, 47.2836075 ], [ -122.4053055, 47.2834671 ], [ -122.4049694, 47.2832919 ], [ -122.404869, 47.2832554 ], [ -122.4047801, 47.2832449 ], [ -122.4046986, 47.2832596 ], [ -122.4045582, 47.2834282 ], [ -122.4044574, 47.2833901 ], [ -122.4043823, 47.2833945 ], [ -122.4043522, 47.2834401 ], [ -122.404225, 47.2834252 ], [ -122.4040551, 47.283359 ], [ -122.4040655, 47.2832727 ], [ -122.4039892, 47.2832187 ], [ -122.403863, 47.2831944 ], [ -122.4037987, 47.2832521 ], [ -122.4036123, 47.2832214 ], [ -122.4036107, 47.2831826 ], [ -122.4036311, 47.2831121 ], [ -122.4035546, 47.2830526 ], [ -122.4034243, 47.2830206 ], [ -122.403308, 47.2830556 ], [ -122.4030687, 47.2829849 ], [ -122.4029036, 47.2829109 ], [ -122.4028366, 47.2828343 ], [ -122.4028156, 47.2828102 ], [ -122.4026107, 47.2827662 ], [ -122.4022782, 47.2825875 ], [ -122.4021885, 47.2825127 ], [ -122.4019112, 47.2823353 ], [ -122.4015936, 47.2822014 ], [ -122.4013275, 47.2820209 ], [ -122.4010958, 47.2818869 ], [ -122.4010271, 47.2817647 ], [ -122.40101, 47.2816307 ], [ -122.4009413, 47.2815609 ], [ -122.400599, 47.2814795 ], [ -122.4004092, 47.2814328 ], [ -122.4002461, 47.2814502 ], [ -122.3998427, 47.2816482 ], [ -122.3996882, 47.2816657 ], [ -122.3995165, 47.2815958 ], [ -122.3993792, 47.2815085 ], [ -122.3992504, 47.2813978 ], [ -122.3991131, 47.2813279 ], [ -122.398916, 47.2813008 ], [ -122.3986903, 47.2813087 ], [ -122.3984828, 47.2813878 ], [ -122.3980987, 47.2813123 ], [ -122.3980266, 47.2812428 ], [ -122.3978699, 47.2812188 ], [ -122.3978479, 47.28129 ], [ -122.3976487, 47.2812958 ], [ -122.3975769, 47.2812043 ], [ -122.3972616, 47.2812284 ], [ -122.3972471, 47.2812295 ], [ -122.3969932, 47.2812294 ], [ -122.3967544, 47.2811718 ], [ -122.3966511, 47.2811564 ], [ -122.3964285, 47.2811918 ], [ -122.3956139, 47.2813325 ], [ -122.3954348, 47.2813115 ], [ -122.3950128, 47.2813931 ], [ -122.3946947, 47.2814644 ], [ -122.3942027, 47.2815254 ], [ -122.3941263, 47.2815085 ], [ -122.3937909, 47.2815672 ], [ -122.3933466, 47.2815707 ], [ -122.3932337, 47.2815143 ], [ -122.3929154, 47.281436 ], [ -122.3928542, 47.2813714 ], [ -122.3926414, 47.2813338 ], [ -122.3924097, 47.281293 ], [ -122.3921866, 47.2812755 ], [ -122.3920063, 47.2811591 ], [ -122.3918776, 47.2810193 ], [ -122.3916458, 47.2809029 ], [ -122.3912939, 47.280833 ], [ -122.3910536, 47.2808272 ], [ -122.3910536, 47.280635 ], [ -122.3910879, 47.2804312 ], [ -122.3911995, 47.2802857 ], [ -122.3914742, 47.2801168 ], [ -122.391663, 47.2799014 ], [ -122.3919838, 47.279719 ], [ -122.3923483, 47.2797625 ], [ -122.392487, 47.2797325 ], [ -122.3925319, 47.279712 ], [ -122.3927378, 47.2796177 ], [ -122.3929676, 47.2794763 ], [ -122.3931632, 47.2793387 ], [ -122.3932034, 47.2791071 ], [ -122.393575, 47.278919 ], [ -122.393517, 47.2788532 ], [ -122.3936135, 47.2787504 ], [ -122.3937546, 47.2786385 ], [ -122.3939204, 47.2785679 ], [ -122.3941178, 47.2785038 ], [ -122.3944257, 47.2785295 ], [ -122.3947476, 47.2786067 ], [ -122.3949943, 47.2787073 ], [ -122.395262, 47.2787965 ], [ -122.3955152, 47.2788259 ], [ -122.395862, 47.2788942 ], [ -122.3959572, 47.278927 ], [ -122.3959927, 47.2789568 ], [ -122.3960007, 47.2789635 ], [ -122.3959655, 47.2790659 ], [ -122.3958703, 47.2793074 ], [ -122.3959406, 47.2793393 ], [ -122.3960919, 47.2793889 ], [ -122.3962684, 47.2792316 ], [ -122.3963241, 47.2790798 ], [ -122.3963293, 47.2790019 ], [ -122.3963341, 47.2789228 ], [ -122.3960449, 47.2788141 ], [ -122.395411, 47.278627 ], [ -122.3942127, 47.2783064 ], [ -122.3938397, 47.278169 ], [ -122.3934107, 47.278011 ], [ -122.3931061, 47.2779215 ], [ -122.3929952, 47.2779654 ], [ -122.3930477, 47.2780553 ], [ -122.3932517, 47.278176 ], [ -122.3932594, 47.2782655 ], [ -122.3930211, 47.2784548 ], [ -122.3924267, 47.2789049 ], [ -122.3923057, 47.2788937 ], [ -122.3922209, 47.2788858 ], [ -122.3920592, 47.2788871 ], [ -122.39192, 47.2789549 ], [ -122.3918601, 47.2790264 ], [ -122.3918714, 47.2790905 ], [ -122.3919704, 47.279227 ], [ -122.3918774, 47.279312 ], [ -122.3917255, 47.2793369 ], [ -122.3913949, 47.2792781 ], [ -122.3910568, 47.2791602 ], [ -122.390825, 47.2789849 ], [ -122.3907168, 47.2789456 ], [ -122.3902714, 47.2789282 ], [ -122.3899166, 47.278951 ], [ -122.3896718, 47.2788733 ], [ -122.3896587, 47.2788706 ], [ -122.3893095, 47.2787995 ], [ -122.3889852, 47.2787251 ], [ -122.388719, 47.2786669 ], [ -122.3884803, 47.2784785 ], [ -122.3883242, 47.2783466 ], [ -122.3879768, 47.2780994 ], [ -122.3879723, 47.2780962 ], [ -122.3878006, 47.2779041 ], [ -122.3876032, 47.2777701 ], [ -122.3874316, 47.2775954 ], [ -122.3873972, 47.2774033 ], [ -122.3874252, 47.2770859 ], [ -122.3873629, 47.2769724 ], [ -122.387303, 47.2768342 ], [ -122.387186, 47.2767863 ], [ -122.3871508, 47.2767447 ], [ -122.387141, 47.2766272 ], [ -122.3871315, 47.276514 ], [ -122.3870165, 47.2764505 ], [ -122.3869504, 47.276341 ], [ -122.3869539, 47.2762693 ], [ -122.386397, 47.2761015 ], [ -122.3862878, 47.2760697 ], [ -122.385837, 47.2759382 ], [ -122.3850489, 47.2757313 ], [ -122.3840076, 47.2754617 ], [ -122.3838876, 47.2754493 ], [ -122.3838518, 47.2754987 ], [ -122.3834735, 47.2754549 ], [ -122.3832375, 47.275342 ], [ -122.3830229, 47.2753093 ], [ -122.3828995, 47.2753566 ], [ -122.3827624, 47.2752778 ], [ -122.382668, 47.2752021 ], [ -122.3825187, 47.2752146 ], [ -122.382465, 47.2753748 ], [ -122.3822933, 47.2754621 ], [ -122.3821245, 47.2753658 ], [ -122.3819581, 47.2754731 ], [ -122.3814324, 47.2752055 ], [ -122.38125, 47.2750963 ], [ -122.3809522, 47.2749653 ], [ -122.3807055, 47.2748088 ], [ -122.3806009, 47.2746778 ], [ -122.3803997, 47.2745995 ], [ -122.3801395, 47.2745377 ], [ -122.3798203, 47.2744612 ], [ -122.3795629, 47.2742174 ], [ -122.3795575, 47.2740754 ], [ -122.3791471, 47.2733329 ], [ -122.3790076, 47.2732237 ], [ -122.3787394, 47.27318 ], [ -122.378615, 47.2731181 ], [ -122.378431, 47.2730399 ], [ -122.3782995, 47.2729416 ], [ -122.3784873, 47.2728215 ], [ -122.3779788, 47.2723906 ], [ -122.3776975, 47.2722113 ], [ -122.3772177, 47.2719933 ], [ -122.3767542, 47.2717545 ], [ -122.3765053, 47.2715856 ], [ -122.3760847, 47.2713002 ], [ -122.3756093, 47.2711017 ], [ -122.3753196, 47.2709998 ], [ -122.3747456, 47.2709124 ], [ -122.3741019, 47.2708469 ], [ -122.3739046, 47.2708072 ], [ -122.3736643, 47.2707586 ], [ -122.3733038, 47.2707004 ], [ -122.3731322, 47.2706247 ], [ -122.3730754, 47.2705861 ], [ -122.3729433, 47.2704965 ], [ -122.3722824, 47.2701587 ], [ -122.371673, 47.2697394 ], [ -122.3715786, 47.269588 ], [ -122.3715357, 47.2694016 ], [ -122.37157, 47.2691395 ], [ -122.3715443, 47.2688425 ], [ -122.3714928, 47.2686794 ], [ -122.3713898, 47.2685629 ], [ -122.3711708, 47.2684998 ], [ -122.3709864, 47.268429 ], [ -122.3709575, 47.2683209 ], [ -122.3707976, 47.268231 ], [ -122.3710036, 47.2680854 ], [ -122.3697762, 47.2673457 ], [ -122.3695788, 47.2674913 ], [ -122.3687033, 47.2669846 ], [ -122.368729, 47.2669089 ], [ -122.3680767, 47.2665245 ], [ -122.3678793, 47.2664779 ], [ -122.3676647, 47.2663497 ], [ -122.3677677, 47.2662507 ], [ -122.3657421, 47.2649752 ], [ -122.3654761, 47.2651382 ], [ -122.365176, 47.2649927 ], [ -122.3649267, 47.2648761 ], [ -122.3646776, 47.2648936 ], [ -122.3642144, 47.2649286 ], [ -122.3633045, 47.2649752 ], [ -122.3624548, 47.2649752 ], [ -122.3620772, 47.2649344 ], [ -122.3618196, 47.2648062 ], [ -122.3613562, 47.2646024 ], [ -122.3615279, 47.2644509 ], [ -122.3605151, 47.2638743 ], [ -122.3603434, 47.2639908 ], [ -122.3601964, 47.2639035 ], [ -122.3600686, 47.2638276 ], [ -122.3596051, 47.2635598 ], [ -122.3593906, 47.2634203 ], [ -122.3591589, 47.2631812 ], [ -122.3590559, 47.2628666 ], [ -122.3590903, 47.2626511 ], [ -122.3590988, 47.262523 ], [ -122.3590645, 47.2622492 ], [ -122.3590559, 47.2620395 ], [ -122.3591589, 47.2618764 ], [ -122.3593907, 47.2617017 ], [ -122.3595276, 47.2616356 ], [ -122.3601117, 47.261154 ], [ -122.3602747, 47.2610318 ], [ -122.3604035, 47.261026 ], [ -122.3604344, 47.2609669 ], [ -122.3605494, 47.2608454 ], [ -122.360721, 47.2607347 ], [ -122.3610104, 47.2606517 ], [ -122.3612446, 47.2607405 ], [ -122.3615536, 47.2608803 ], [ -122.3619913, 47.2611308 ], [ -122.3618454, 47.2612531 ], [ -122.3619913, 47.2613463 ], [ -122.3621287, 47.2612531 ], [ -122.3635506, 47.2620922 ], [ -122.363708, 47.2621851 ], [ -122.3635191, 47.2623366 ], [ -122.3665575, 47.2641888 ], [ -122.3666949, 47.2640956 ], [ -122.3671755, 47.2643752 ], [ -122.3673815, 47.2645383 ], [ -122.3677763, 47.2646315 ], [ -122.3682333, 47.2648851 ], [ -122.3683865, 47.2650151 ], [ -122.3684789, 47.2650936 ], [ -122.3686861, 47.2651907 ], [ -122.3691742, 47.2654964 ], [ -122.3698544, 47.2659234 ], [ -122.3697933, 47.265977 ], [ -122.3699307, 47.2660527 ], [ -122.3699993, 47.2660236 ], [ -122.3702195, 47.2661524 ], [ -122.3704125, 47.2662736 ], [ -122.3706041, 47.2663938 ], [ -122.3707969, 47.2665149 ], [ -122.3712076, 47.2667726 ], [ -122.3715435, 47.2669668 ], [ -122.3715622, 47.2670221 ], [ -122.3725554, 47.2676519 ], [ -122.3735999, 47.2682785 ], [ -122.3737883, 47.2683448 ], [ -122.3737953, 47.2682738 ], [ -122.3742373, 47.2685453 ], [ -122.3744489, 47.2687726 ], [ -122.3746048, 47.2688168 ], [ -122.3746606, 47.2688973 ], [ -122.3749956, 47.268992 ], [ -122.3750677, 47.2690583 ], [ -122.37517, 47.2691404 ], [ -122.3754655, 47.2692319 ], [ -122.375626, 47.2692272 ], [ -122.3757679, 47.2692603 ], [ -122.3761912, 47.2695208 ], [ -122.376717, 47.2697654 ], [ -122.3771008, 47.2698917 ], [ -122.3772427, 47.2699911 ], [ -122.3773753, 47.2701379 ], [ -122.3773746, 47.2701497 ], [ -122.377359, 47.2704031 ], [ -122.3775125, 47.2706099 ], [ -122.3780708, 47.2710313 ], [ -122.3786477, 47.271418 ], [ -122.3793758, 47.2718173 ], [ -122.3796852, 47.272013 ], [ -122.3799085, 47.2720162 ], [ -122.3800573, 47.2721077 ], [ -122.380155, 47.272324 ], [ -122.3804923, 47.2724613 ], [ -122.3810739, 47.2728243 ], [ -122.381175, 47.2728212 ], [ -122.3812786, 47.272818 ], [ -122.3815457, 47.2729607 ], [ -122.3815856, 47.2729821 ], [ -122.381695, 47.2730563 ], [ -122.3816322, 47.2731968 ], [ -122.3816885, 47.273235 ], [ -122.3817763, 47.2732946 ], [ -122.3820509, 47.2734809 ], [ -122.3825975, 47.2737718 ], [ -122.3827906, 47.2738471 ], [ -122.3828838, 47.273869 ], [ -122.3830767, 47.2738417 ], [ -122.3832093, 47.2735645 ], [ -122.3836087, 47.2735966 ], [ -122.3838932, 47.2736103 ], [ -122.3838937, 47.2737859 ], [ -122.3839002, 47.2740033 ], [ -122.383928, 47.2741108 ], [ -122.3839754, 47.2741566 ], [ -122.3839757, 47.2741865 ], [ -122.3843055, 47.2741917 ], [ -122.3844924, 47.2742792 ], [ -122.3846778, 47.2743441 ], [ -122.384861, 47.2743895 ], [ -122.3850668, 47.2744376 ], [ -122.3854315, 47.2745377 ], [ -122.3856868, 47.2746312 ], [ -122.3859794, 47.2746997 ], [ -122.3863444, 47.2748283 ], [ -122.3867816, 47.274852 ], [ -122.3869512, 47.2748545 ], [ -122.386955, 47.2749653 ], [ -122.3870081, 47.2749822 ], [ -122.3871057, 47.274977 ], [ -122.3871372, 47.275012 ], [ -122.3872989, 47.2749994 ], [ -122.3873389, 47.2749328 ], [ -122.3874137, 47.2748634 ], [ -122.3874807, 47.2747233 ], [ -122.3874877, 47.2746328 ], [ -122.3875606, 47.2745935 ], [ -122.3876265, 47.2746127 ], [ -122.3876578, 47.2747051 ], [ -122.3877238, 47.2749907 ], [ -122.3878631, 47.275085 ], [ -122.3880386, 47.2751455 ], [ -122.3881822, 47.2751386 ], [ -122.3882849, 47.2751049 ], [ -122.3883188, 47.2751489 ], [ -122.388504, 47.2751934 ], [ -122.3884962, 47.2752231 ], [ -122.3885166, 47.2752695 ], [ -122.3885198, 47.2752767 ], [ -122.3885746, 47.2753115 ], [ -122.3895524, 47.2755612 ], [ -122.3895639, 47.2755641 ], [ -122.3896543, 47.2755453 ], [ -122.3904576, 47.2757633 ], [ -122.3913511, 47.2760096 ], [ -122.3921152, 47.2762196 ], [ -122.3925483, 47.2763398 ], [ -122.3925933, 47.2763508 ], [ -122.392952, 47.2764382 ], [ -122.3931235, 47.2764995 ], [ -122.3932022, 47.2765169 ], [ -122.3932793, 47.276609 ], [ -122.3934213, 47.2766437 ], [ -122.3936089, 47.2766894 ], [ -122.393661, 47.2766908 ], [ -122.393655, 47.2767031 ], [ -122.3936893, 47.2767108 ], [ -122.3937309, 47.2767202 ], [ -122.3937262, 47.2767525 ], [ -122.3937997, 47.2767466 ], [ -122.3937992, 47.2767711 ], [ -122.3938227, 47.2767825 ], [ -122.3938219, 47.2768058 ], [ -122.393848, 47.2768215 ], [ -122.3938726, 47.2768234 ], [ -122.3938887, 47.2768164 ], [ -122.3939688, 47.276821 ], [ -122.3941459, 47.2768313 ], [ -122.3943448, 47.2768415 ], [ -122.394524, 47.2768867 ], [ -122.3947223, 47.2769897 ], [ -122.394755, 47.27699 ], [ -122.3949505, 47.2769917 ], [ -122.3950846, 47.2769486 ], [ -122.3953336, 47.2768012 ], [ -122.3954177, 47.2767879 ], [ -122.3954682, 47.2767953 ], [ -122.3956687, 47.2768246 ], [ -122.3957612, 47.2768681 ], [ -122.395869, 47.2769527 ], [ -122.3959158, 47.2770066 ], [ -122.3959453, 47.2770405 ], [ -122.3962835, 47.2771157 ], [ -122.3968499, 47.2772534 ], [ -122.3973428, 47.2773979 ], [ -122.3974033, 47.2774095 ], [ -122.3977495, 47.2774762 ], [ -122.3978285, 47.2774535 ], [ -122.3980113, 47.2774989 ], [ -122.398626, 47.2776517 ], [ -122.3990449, 47.2777628 ], [ -122.3999402, 47.2779972 ], [ -122.3999696, 47.2779849 ], [ -122.4003065, 47.2780652 ], [ -122.4005153, 47.2781287 ], [ -122.4005914, 47.2781518 ], [ -122.4007826, 47.2781775 ], [ -122.4008999, 47.2782019 ], [ -122.4009543, 47.2782132 ], [ -122.4010298, 47.278297 ], [ -122.4014105, 47.2785293 ], [ -122.4017079, 47.2787182 ], [ -122.4018462, 47.2787954 ], [ -122.4019885, 47.2788748 ], [ -122.402114, 47.2789566 ], [ -122.402332, 47.2790987 ], [ -122.4024875, 47.2792063 ], [ -122.4025122, 47.2792541 ], [ -122.4029799, 47.2795254 ], [ -122.4034194, 47.2797887 ], [ -122.4037815, 47.2800209 ], [ -122.4040219, 47.2801927 ], [ -122.4040531, 47.2801935 ], [ -122.4043997, 47.2804292 ], [ -122.4045978, 47.2805395 ], [ -122.4046931, 47.2806949 ], [ -122.4048577, 47.2807827 ], [ -122.4050869, 47.2808796 ], [ -122.4051283, 47.280852 ], [ -122.4052744, 47.2809401 ], [ -122.4054141, 47.2810243 ], [ -122.4057306, 47.2811873 ], [ -122.4058429, 47.2812623 ], [ -122.4058944, 47.2812967 ], [ -122.4058704, 47.2813351 ], [ -122.4095872, 47.2837004 ], [ -122.4098677, 47.2835231 ], [ -122.4101852, 47.2832652 ], [ -122.4103651, 47.2831451 ], [ -122.4103935, 47.2831262 ], [ -122.4105715, 47.2830223 ], [ -122.4106207, 47.2829879 ], [ -122.4108818, 47.2828051 ], [ -122.4108516, 47.282786 ], [ -122.4109102, 47.2827432 ], [ -122.4110021, 47.2826761 ], [ -122.4109711, 47.28262 ], [ -122.4110436, 47.2825856 ], [ -122.4109528, 47.2825092 ], [ -122.4107449, 47.2824112 ], [ -122.4105727, 47.2822455 ], [ -122.4104842, 47.2821727 ], [ -122.41052, 47.2820907 ], [ -122.4105493, 47.2819904 ], [ -122.4106378, 47.2819126 ], [ -122.4108131, 47.2818252 ], [ -122.4108622, 47.2818539 ], [ -122.410932, 47.2818975 ], [ -122.4110572, 47.281805 ], [ -122.411156, 47.2817321 ], [ -122.4111823, 47.2817127 ], [ -122.4112594, 47.2816557 ], [ -122.4112824, 47.2816387 ], [ -122.4113751, 47.2815703 ], [ -122.4114142, 47.2815414 ], [ -122.411448, 47.2815165 ], [ -122.4115653, 47.2814298 ], [ -122.411626, 47.281385 ], [ -122.4117454, 47.2812968 ], [ -122.4117599, 47.2812862 ], [ -122.4118167, 47.2812442 ], [ -122.4119239, 47.281165 ], [ -122.4121336, 47.2810849 ], [ -122.4122811, 47.2811067 ], [ -122.4124651, 47.2811562 ], [ -122.4125768, 47.281063 ], [ -122.4128353, 47.2808309 ], [ -122.4130177, 47.2806409 ], [ -122.412944, 47.2804556 ], [ -122.4128265, 47.2803802 ], [ -122.4129853, 47.2802647 ], [ -122.4131504, 47.2801445 ], [ -122.413113, 47.2800884 ], [ -122.4130831, 47.2799832 ], [ -122.4130869, 47.2798843 ], [ -122.4130109, 47.2797235 ], [ -122.4127849, 47.2795151 ], [ -122.4121144, 47.2791225 ], [ -122.4116916, 47.2789055 ], [ -122.4112024, 47.278578 ], [ -122.4108254, 47.2783079 ], [ -122.4103462, 47.2779962 ], [ -122.4100151, 47.2777906 ], [ -122.4097052, 47.2776077 ], [ -122.4096697, 47.2775849 ], [ -122.4094369, 47.2774352 ], [ -122.409131, 47.2772571 ], [ -122.4087867, 47.2770746 ], [ -122.4084008, 47.2768273 ], [ -122.4081553, 47.2766504 ], [ -122.4080943, 47.2765281 ], [ -122.4078283, 47.2763704 ], [ -122.4075953, 47.2762916 ], [ -122.4071672, 47.276026 ], [ -122.4070374, 47.2759573 ], [ -122.4068922, 47.2759588 ], [ -122.4066939, 47.2759667 ], [ -122.4065411, 47.2758908 ], [ -122.4059746, 47.2755822 ], [ -122.4057203, 47.2754211 ], [ -122.4048624, 47.2748779 ], [ -122.4047256, 47.2747987 ], [ -122.4042713, 47.2744991 ], [ -122.404148, 47.2744194 ], [ -122.4038043, 47.2742013 ], [ -122.4036813, 47.2740609 ], [ -122.4036773, 47.2739547 ], [ -122.4036893, 47.2739007 ], [ -122.4036281, 47.2738205 ], [ -122.4032678, 47.2735968 ], [ -122.4026377, 47.27318 ], [ -122.4017447, 47.272628 ], [ -122.4016188, 47.2725196 ], [ -122.4015149, 47.2724385 ], [ -122.4013607, 47.2723663 ], [ -122.4011476, 47.2722669 ], [ -122.4008636, 47.2721658 ], [ -122.4006266, 47.272058 ], [ -122.4004178, 47.2719272 ], [ -122.4004766, 47.2718507 ], [ -122.4002853, 47.2717425 ], [ -122.4002159, 47.271702 ], [ -122.4000421, 47.2715981 ], [ -122.3997196, 47.2714577 ], [ -122.399679, 47.271439 ], [ -122.399666, 47.271433 ], [ -122.3996294, 47.2714161 ], [ -122.3995417, 47.271352 ], [ -122.3994384, 47.2712764 ], [ -122.3991618, 47.2711055 ], [ -122.3990565, 47.2710404 ], [ -122.3990132, 47.2710738 ], [ -122.3989928, 47.2710614 ], [ -122.3987657, 47.2709233 ], [ -122.3987108, 47.2708896 ], [ -122.398371, 47.270681 ], [ -122.3982848, 47.2706007 ], [ -122.3981637, 47.2704244 ], [ -122.3977299, 47.2700901 ], [ -122.3975177, 47.2699287 ], [ -122.3972918, 47.2697941 ], [ -122.3972159, 47.2697296 ], [ -122.397012, 47.269632 ], [ -122.3967554, 47.2694924 ], [ -122.3966375, 47.2694123 ], [ -122.3963045, 47.269196 ], [ -122.3959252, 47.2689784 ], [ -122.3955381, 47.268747 ], [ -122.3950338, 47.2684419 ], [ -122.3947573, 47.2682997 ], [ -122.3945746, 47.2681689 ], [ -122.3942312, 47.2679491 ], [ -122.3938426, 47.2676952 ], [ -122.3935989, 47.2675547 ], [ -122.3934196, 47.2674383 ], [ -122.3930798, 47.2672364 ], [ -122.3925979, 47.266928 ], [ -122.3921736, 47.266654 ], [ -122.3919168, 47.2665107 ], [ -122.391656, 47.2664034 ], [ -122.3912912, 47.2661514 ], [ -122.391088, 47.2660828 ], [ -122.3909141, 47.2661097 ], [ -122.39072, 47.2660706 ], [ -122.3901308, 47.265731 ], [ -122.3893211, 47.2652201 ], [ -122.3885024, 47.2646978 ], [ -122.3878328, 47.2642918 ], [ -122.3873933, 47.2640189 ], [ -122.3869142, 47.2637059 ], [ -122.3868702, 47.2633823 ], [ -122.3867602, 47.2633555 ], [ -122.38665, 47.2632427 ], [ -122.3864683, 47.2632113 ], [ -122.3823278, 47.2605924 ], [ -122.3789482, 47.2584808 ], [ -122.3779611, 47.2584517 ], [ -122.3772745, 47.2583352 ], [ -122.3766737, 47.258124 ], [ -122.3761587, 47.2578255 ], [ -122.3757725, 47.2574177 ], [ -122.3755364, 47.2568497 ], [ -122.3755793, 47.2562817 ], [ -122.3757725, 47.2558594 ], [ -122.3762445, 47.2552513 ], [ -122.3762555, 47.2541049 ], [ -122.3821604, 47.2541809 ], [ -122.3824372, 47.2540167 ], [ -122.3824375, 47.2538234 ], [ -122.3826269, 47.2538711 ], [ -122.3826312, 47.2540169 ], [ -122.3829074, 47.2540571 ], [ -122.3829656, 47.2541336 ], [ -122.3829627, 47.2548558 ], [ -122.3828728, 47.2550422 ], [ -122.3826692, 47.255185 ], [ -122.382563, 47.2552159 ], [ -122.3825451, 47.2559641 ], [ -122.3825823, 47.2560337 ], [ -122.3829785, 47.256041 ], [ -122.3842338, 47.256061 ], [ -122.3842123, 47.25676 ], [ -122.3829627, 47.2567402 ], [ -122.382625, 47.2567366 ], [ -122.3825075, 47.2567985 ], [ -122.3823978, 47.2574955 ], [ -122.3823549, 47.2575887 ], [ -122.3823463, 47.2576935 ], [ -122.3823634, 47.2578683 ], [ -122.3824836, 47.2579964 ], [ -122.3825866, 47.2580838 ], [ -122.3828183, 47.2582003 ], [ -122.3831528, 47.2583081 ], [ -122.3849507, 47.2594333 ], [ -122.3851755, 47.2593778 ], [ -122.3854005, 47.2593712 ], [ -122.3855896, 47.2594371 ], [ -122.3928672, 47.264054 ], [ -122.3932737, 47.2643118 ], [ -122.3933581, 47.2643769 ], [ -122.3934375, 47.2646336 ], [ -122.3933569, 47.2647285 ], [ -122.3938522, 47.2650539 ], [ -122.3941683, 47.265216 ], [ -122.3944051, 47.26525 ], [ -122.3948431, 47.2652892 ], [ -122.3951353, 47.2653242 ], [ -122.3956598, 47.2653906 ], [ -122.3962852, 47.2648873 ], [ -122.3968345, 47.2649398 ], [ -122.3962165, 47.2654348 ], [ -122.3962337, 47.2655513 ], [ -122.3962791, 47.2655661 ], [ -122.3964309, 47.2656214 ], [ -122.3966271, 47.2657045 ], [ -122.3968445, 47.265823 ], [ -122.397056, 47.2659375 ], [ -122.3972633, 47.2660823 ], [ -122.3975177, 47.2662114 ], [ -122.3975297, 47.2662619 ], [ -122.3977701, 47.2664192 ], [ -122.3979759, 47.2665357 ], [ -122.3982297, 47.2666696 ], [ -122.398464, 47.2668278 ], [ -122.3986728, 47.2669651 ], [ -122.3988322, 47.2671055 ], [ -122.398991, 47.267263 ], [ -122.3991591, 47.2674002 ], [ -122.399392, 47.2674933 ], [ -122.3996236, 47.2675907 ], [ -122.3996141, 47.2676407 ], [ -122.3996896, 47.2677034 ], [ -122.399736, 47.2677979 ], [ -122.399825, 47.2678869 ], [ -122.3999673, 47.2680101 ], [ -122.4001925, 47.2681099 ], [ -122.4002319, 47.2680814 ], [ -122.4002579, 47.2680968 ], [ -122.4004118, 47.2681872 ], [ -122.4003785, 47.268229 ], [ -122.4004098, 47.2682994 ], [ -122.4003536, 47.2683354 ], [ -122.4007018, 47.2685599 ], [ -122.4009372, 47.2684926 ], [ -122.401126, 47.2684518 ], [ -122.4015037, 47.268679 ], [ -122.4014505, 47.2687866 ], [ -122.4015018, 47.2688887 ], [ -122.4016182, 47.268998 ], [ -122.4015854, 47.2690885 ], [ -122.4014657, 47.2691921 ], [ -122.4013946, 47.2691726 ], [ -122.4013234, 47.2691973 ], [ -122.4015209, 47.2693138 ], [ -122.4017011, 47.2691915 ], [ -122.4021722, 47.2694717 ], [ -122.4023362, 47.269605 ], [ -122.4025632, 47.2694373 ], [ -122.4027454, 47.2694204 ], [ -122.4029132, 47.2693512 ], [ -122.403036, 47.2693216 ], [ -122.4032888, 47.2694414 ], [ -122.403475, 47.2695158 ], [ -122.4035688, 47.2696301 ], [ -122.4035698, 47.2697609 ], [ -122.4035289, 47.2698566 ], [ -122.4033877, 47.2699671 ], [ -122.4029946, 47.270296 ], [ -122.4028499, 47.2704726 ], [ -122.4027969, 47.2706135 ], [ -122.4028184, 47.2707009 ], [ -122.4029042, 47.2707991 ], [ -122.4041005, 47.2715581 ], [ -122.4058799, 47.2719827 ], [ -122.4138139, 47.2770097 ], [ -122.4141016, 47.276781 ], [ -122.4153033, 47.277547 ], [ -122.415454, 47.2776234 ], [ -122.4156457, 47.2776293 ], [ -122.4157019, 47.2775892 ], [ -122.4157152, 47.2772818 ], [ -122.4156713, 47.2771376 ], [ -122.4156536, 47.276882 ], [ -122.4156319, 47.2764677 ], [ -122.4156361, 47.2761139 ], [ -122.4155808, 47.2756047 ], [ -122.4155503, 47.2748948 ], [ -122.4157191, 47.2748288 ], [ -122.4159938, 47.2748048 ], [ -122.4161664, 47.2748901 ], [ -122.4171881, 47.2755039 ], [ -122.4175577, 47.2757298 ], [ -122.4178241, 47.2759187 ], [ -122.4178147, 47.2759705 ], [ -122.4178952, 47.2759709 ], [ -122.4179917, 47.275947 ], [ -122.4180703, 47.275855 ], [ -122.4181515, 47.2757817 ], [ -122.4183258, 47.2755524 ], [ -122.4202491, 47.2728897 ], [ -122.4202834, 47.2728256 ], [ -122.4201976, 47.2727324 ], [ -122.4199659, 47.2725635 ], [ -122.4196569, 47.2723248 ], [ -122.4196312, 47.2722375 ], [ -122.4195898, 47.2720967 ], [ -122.4193822, 47.271754 ], [ -122.4162752, 47.2693779 ], [ -122.4150565, 47.2684636 ], [ -122.4143171, 47.2679104 ], [ -122.4118098, 47.2660157 ], [ -122.4121383, 47.2658085 ], [ -122.4125676, 47.2654922 ], [ -122.412823, 47.2652998 ], [ -122.4129413, 47.2651994 ], [ -122.4131353, 47.2650663 ], [ -122.4131815, 47.2650348 ], [ -122.4132751, 47.2649747 ], [ -122.4134207, 47.2648827 ], [ -122.4134842, 47.2648882 ], [ -122.413577, 47.2649727 ], [ -122.4136552, 47.2649926 ], [ -122.4136723, 47.2650573 ], [ -122.4137529, 47.2650689 ], [ -122.4138644, 47.2651613 ], [ -122.4141614, 47.2653823 ], [ -122.4143721, 47.2655391 ], [ -122.4142547, 47.2656087 ], [ -122.4142129, 47.2659115 ], [ -122.4201719, 47.270368 ], [ -122.4205093, 47.2703687 ], [ -122.4205545, 47.2703426 ], [ -122.4206263, 47.270301 ], [ -122.4208323, 47.2703764 ], [ -122.4213344, 47.2701278 ], [ -122.4215908, 47.2701634 ], [ -122.422278, 47.2699236 ], [ -122.4223397, 47.2698231 ], [ -122.4208231, 47.268232 ], [ -122.4222479, 47.2673799 ], [ -122.4242762, 47.2693554 ], [ -122.4257793, 47.2689737 ], [ -122.4256774, 47.2688613 ], [ -122.4245271, 47.2677423 ], [ -122.4241104, 47.267256 ], [ -122.4237905, 47.2669695 ], [ -122.4233723, 47.2665508 ], [ -122.423142, 47.2663332 ], [ -122.4230368, 47.2661847 ], [ -122.4228977, 47.266043 ], [ -122.4225818, 47.2657721 ], [ -122.4222291, 47.2653321 ], [ -122.4219632, 47.2650453 ], [ -122.4214954, 47.2645305 ], [ -122.4212807, 47.2642721 ], [ -122.420847, 47.2638484 ], [ -122.4204533, 47.2634416 ], [ -122.4200963, 47.2631093 ], [ -122.4197509, 47.2627543 ], [ -122.4192519, 47.2622797 ], [ -122.4188566, 47.2619518 ], [ -122.4186718, 47.2616945 ], [ -122.41817, 47.2611115 ], [ -122.4181272, 47.2609232 ], [ -122.418113, 47.2607122 ], [ -122.4180761, 47.2605986 ], [ -122.4179707, 47.2604269 ], [ -122.4177874, 47.2601974 ], [ -122.4174989, 47.2598935 ], [ -122.4170111, 47.2591338 ], [ -122.416714, 47.2584996 ], [ -122.4165179, 47.2579078 ], [ -122.4165076, 47.2574947 ], [ -122.4164539, 47.2566173 ], [ -122.4165035, 47.2560331 ], [ -122.416529, 47.2554244 ], [ -122.4165048, 47.25474 ], [ -122.4164627, 47.2545073 ], [ -122.4163887, 47.2543006 ], [ -122.4164081, 47.2541098 ], [ -122.4160397, 47.2529622 ], [ -122.4157743, 47.2524491 ], [ -122.4155017, 47.2519596 ], [ -122.4151382, 47.2515091 ], [ -122.4146861, 47.2509851 ], [ -122.414272, 47.2505858 ], [ -122.4139366, 47.2503226 ], [ -122.4136791, 47.250177 ], [ -122.4133793, 47.2499759 ], [ -122.4131455, 47.2497825 ], [ -122.4128474, 47.249564 ], [ -122.4122885, 47.2491582 ], [ -122.4121779, 47.2491515 ], [ -122.4120435, 47.2491433 ], [ -122.4119289, 47.2492307 ], [ -122.4119177, 47.2494352 ], [ -122.4120399, 47.2495678 ], [ -122.4123624, 47.2498 ], [ -122.4126238, 47.2499343 ], [ -122.4128607, 47.2501516 ], [ -122.4127178, 47.2502086 ], [ -122.4124118, 47.2503306 ], [ -122.4121205, 47.2504468 ], [ -122.411933, 47.2505045 ], [ -122.411285, 47.2507038 ], [ -122.4108135, 47.2508116 ], [ -122.4106718, 47.2507204 ], [ -122.4104543, 47.2502378 ], [ -122.4104617, 47.250072 ], [ -122.4106009, 47.2498713 ], [ -122.4107451, 47.2496557 ], [ -122.4110333, 47.2495264 ], [ -122.4114609, 47.2493688 ], [ -122.4116808, 47.2491821 ], [ -122.4119124, 47.2489778 ], [ -122.41195, 47.2489446 ], [ -122.4118968, 47.2488401 ], [ -122.4114756, 47.2485505 ], [ -122.4110249, 47.2481831 ], [ -122.4106737, 47.2479363 ], [ -122.410362, 47.2476748 ], [ -122.4099139, 47.2473513 ], [ -122.4092966, 47.2469196 ], [ -122.4091494, 47.246803 ], [ -122.4087358, 47.2464753 ], [ -122.4084977, 47.2463316 ], [ -122.4083642, 47.2462145 ], [ -122.4096649, 47.2458714 ], [ -122.4099569, 47.2460388 ], [ -122.4102568, 47.2462527 ], [ -122.4105146, 47.2464332 ], [ -122.410683, 47.2465338 ], [ -122.4109551, 47.2467564 ], [ -122.4112443, 47.246971 ], [ -122.4121066, 47.247592 ], [ -122.4122448, 47.247687 ], [ -122.4124325, 47.2478167 ], [ -122.4126187, 47.2479454 ], [ -122.4128062, 47.248075 ], [ -122.4129925, 47.2482037 ], [ -122.41318, 47.2483334 ], [ -122.4137062, 47.2486966 ], [ -122.4141139, 47.2489788 ], [ -122.4144201, 47.2492183 ], [ -122.4151925, 47.2497718 ], [ -122.4155009, 47.2500123 ], [ -122.4156337, 47.2501314 ], [ -122.4158608, 47.250317 ], [ -122.4161651, 47.2506208 ], [ -122.4164845, 47.2509882 ], [ -122.4167865, 47.2513566 ], [ -122.4171005, 47.2517731 ], [ -122.4173479, 47.2521831 ], [ -122.4176547, 47.2528065 ], [ -122.417763, 47.2530911 ], [ -122.4178638, 47.2533907 ], [ -122.4179089, 47.2536073 ], [ -122.4180141, 47.2540002 ], [ -122.4180875, 47.2544645 ], [ -122.4181133, 47.2554684 ], [ -122.4181082, 47.2563408 ], [ -122.418229, 47.2571765 ], [ -122.4183802, 47.2577943 ], [ -122.4186059, 47.2583634 ], [ -122.4189009, 47.2589125 ], [ -122.4191407, 47.2593551 ], [ -122.4194096, 47.2596648 ], [ -122.4196438, 47.2599068 ], [ -122.4197833, 47.2600281 ], [ -122.4201898, 47.2603441 ], [ -122.4205266, 47.2607412 ], [ -122.4206206, 47.2607508 ], [ -122.4209036, 47.2610773 ], [ -122.4212077, 47.2613769 ], [ -122.4217391, 47.2619008 ], [ -122.4220537, 47.2622108 ], [ -122.4221603, 47.2622372 ], [ -122.4223423, 47.262185 ], [ -122.4224889, 47.2622228 ], [ -122.4228241, 47.2625057 ], [ -122.4230105, 47.2626857 ], [ -122.4232493, 47.2629402 ], [ -122.4234471, 47.2631656 ], [ -122.4236459, 47.2633748 ], [ -122.4238337, 47.2635865 ], [ -122.42399, 47.2637691 ], [ -122.424182, 47.2639774 ], [ -122.424468, 47.2643315 ], [ -122.4247254, 47.2646179 ], [ -122.4250082, 47.2649569 ], [ -122.4254406, 47.2655468 ], [ -122.4257306, 47.2658129 ], [ -122.426062, 47.2662366 ], [ -122.4263707, 47.2666093 ], [ -122.4266082, 47.2667664 ], [ -122.4268129, 47.2669927 ], [ -122.4269934, 47.2671499 ], [ -122.427401, 47.2675568 ], [ -122.4277548, 47.2677053 ], [ -122.4279369, 47.2678542 ], [ -122.4281847, 47.2680831 ], [ -122.4282944, 47.2682664 ], [ -122.4283941, 47.2684112 ], [ -122.4285805, 47.2685399 ], [ -122.4287681, 47.2686694 ], [ -122.4290367, 47.2688607 ], [ -122.4291401, 47.2688576 ], [ -122.4292131, 47.2687964 ], [ -122.4293947, 47.2684867 ], [ -122.429587, 47.2680351 ], [ -122.4296328, 47.2678156 ], [ -122.4296565, 47.2674414 ], [ -122.4296986, 47.2673247 ], [ -122.4306483, 47.2663757 ], [ -122.4308364, 47.2661995 ], [ -122.4308767, 47.2661014 ], [ -122.4308648, 47.265965 ], [ -122.4307884, 47.2658213 ], [ -122.4297627, 47.2643299 ], [ -122.4294686, 47.2639224 ], [ -122.4289116, 47.2634603 ], [ -122.4276348, 47.2630553 ], [ -122.4277207, 47.2628987 ], [ -122.4277904, 47.2627385 ], [ -122.4278226, 47.2625638 ], [ -122.4278172, 47.2623672 ], [ -122.4277743, 47.2622689 ], [ -122.4276402, 47.2621415 ], [ -122.4270662, 47.261701 ], [ -122.427254, 47.2615772 ], [ -122.427946, 47.2611549 ], [ -122.4280694, 47.2611003 ], [ -122.4281766, 47.2610821 ], [ -122.4282893, 47.2610857 ], [ -122.4284127, 47.2611149 ], [ -122.4285736, 47.2612059 ], [ -122.4296089, 47.2620869 ], [ -122.4302151, 47.2632045 ], [ -122.4305424, 47.263605 ], [ -122.4310134, 47.2640621 ], [ -122.4313551, 47.2642241 ], [ -122.4315697, 47.2641662 ], [ -122.4315863, 47.2638735 ], [ -122.4315691, 47.2637483 ], [ -122.4314103, 47.2633242 ], [ -122.4308573, 47.262559 ], [ -122.430809, 47.2622739 ], [ -122.4304641, 47.2622288 ], [ -122.430103, 47.2618826 ], [ -122.4298026, 47.2613569 ], [ -122.4289025, 47.2605355 ], [ -122.4288864, 47.2601678 ], [ -122.4286107, 47.2599341 ], [ -122.4285581, 47.2593865 ], [ -122.4279412, 47.2584734 ], [ -122.4283467, 47.258311 ], [ -122.4281418, 47.2580358 ], [ -122.427747, 47.2580416 ], [ -122.4264134, 47.2558622 ], [ -122.4277212, 47.2553823 ], [ -122.4280367, 47.2558593 ], [ -122.4287727, 47.2556314 ], [ -122.4290645, 47.2560144 ], [ -122.4284132, 47.2562984 ], [ -122.4294089, 47.25779 ], [ -122.4300174, 47.2585863 ], [ -122.4301956, 47.2589097 ], [ -122.4302311, 47.2590296 ], [ -122.4302987, 47.2591713 ], [ -122.4303999, 47.2593207 ], [ -122.4304533, 47.2593631 ], [ -122.4305327, 47.2593814 ], [ -122.4306695, 47.259393 ], [ -122.4307999, 47.2593928 ], [ -122.4311298, 47.2593182 ], [ -122.4311942, 47.2594966 ], [ -122.4313632, 47.2597114 ], [ -122.4317253, 47.2603321 ], [ -122.4320445, 47.2608582 ], [ -122.4321008, 47.2611531 ], [ -122.4321276, 47.2613406 ], [ -122.4321249, 47.2614516 ], [ -122.4321002, 47.2615289 ], [ -122.4321275, 47.2615775 ], [ -122.4324004, 47.2614963 ], [ -122.4324548, 47.2615704 ], [ -122.4321488, 47.2616667 ], [ -122.4324014, 47.2620655 ], [ -122.4328239, 47.2625593 ], [ -122.4330009, 47.2628373 ], [ -122.4330393, 47.2629631 ], [ -122.4331382, 47.2630038 ], [ -122.4332868, 47.2630269 ], [ -122.4334491, 47.2630539 ], [ -122.4335076, 47.2630004 ], [ -122.4338391, 47.2629012 ], [ -122.4342057, 47.2627053 ], [ -122.4344683, 47.2625522 ], [ -122.4347822, 47.2623092 ], [ -122.435604, 47.2619668 ], [ -122.4357413, 47.2619849 ], [ -122.4359076, 47.2619242 ], [ -122.4362592, 47.2617685 ], [ -122.4363282, 47.2616754 ], [ -122.4362291, 47.2615048 ], [ -122.4350466, 47.2598434 ], [ -122.4335925, 47.2576343 ], [ -122.432715, 47.2563656 ], [ -122.4326284, 47.2562609 ], [ -122.4326158, 47.2561764 ], [ -122.4326253, 47.2560969 ], [ -122.4326206, 47.2560312 ], [ -122.432677, 47.2559887 ], [ -122.4327568, 47.255945 ], [ -122.4327974, 47.2558843 ], [ -122.4328017, 47.2558376 ], [ -122.4327896, 47.2557583 ], [ -122.4328114, 47.2556716 ], [ -122.4327233, 47.2555434 ], [ -122.4326786, 47.255448 ], [ -122.4325816, 47.2553809 ], [ -122.4324625, 47.2553708 ], [ -122.4324138, 47.2552432 ], [ -122.4323453, 47.2550024 ], [ -122.4322404, 47.2547162 ], [ -122.4324281, 47.2546434 ], [ -122.4322885, 47.2544147 ], [ -122.4321036, 47.254407 ], [ -122.4319908, 47.2541861 ], [ -122.4319618, 47.2541292 ], [ -122.4321001, 47.2539268 ], [ -122.4321991, 47.2537819 ], [ -122.4323055, 47.2537651 ], [ -122.4323387, 47.2537599 ], [ -122.4322014, 47.2533463 ], [ -122.4320898, 47.2530201 ], [ -122.4319978, 47.2526084 ], [ -122.4317518, 47.2526208 ], [ -122.4317131, 47.2523928 ], [ -122.4317417, 47.2522771 ], [ -122.4317246, 47.2522246 ], [ -122.4316896, 47.2521904 ], [ -122.4313891, 47.2521359 ], [ -122.4309742, 47.2520386 ], [ -122.4307593, 47.2520162 ], [ -122.430621, 47.2520283 ], [ -122.4300123, 47.251922 ], [ -122.4299564, 47.251882 ], [ -122.4297967, 47.2518885 ], [ -122.429646, 47.2518568 ], [ -122.4296332, 47.2518167 ], [ -122.4287686, 47.2516795 ], [ -122.4281181, 47.2515855 ], [ -122.4280488, 47.2515007 ], [ -122.4279135, 47.2514525 ], [ -122.4277693, 47.2514472 ], [ -122.4266218, 47.2512763 ], [ -122.4264196, 47.2512696 ], [ -122.4263179, 47.2512397 ], [ -122.4262996, 47.2511939 ], [ -122.426192, 47.2511133 ], [ -122.4262178, 47.2510204 ], [ -122.4265201, 47.2509988 ], [ -122.4272425, 47.2509224 ], [ -122.4276359, 47.2509256 ], [ -122.4279562, 47.2509815 ], [ -122.4289218, 47.2511043 ], [ -122.4296853, 47.2512261 ], [ -122.4301171, 47.2512857 ], [ -122.4302123, 47.2512973 ], [ -122.4303368, 47.2513149 ], [ -122.4305427, 47.251344 ], [ -122.430739, 47.2513773 ], [ -122.4309267, 47.2514138 ], [ -122.431152, 47.2514372 ], [ -122.431319, 47.2514648 ], [ -122.431474, 47.2514824 ], [ -122.4315994, 47.2514955 ], [ -122.4317268, 47.2514755 ], [ -122.4317294, 47.2514108 ], [ -122.4317075, 47.2513443 ], [ -122.4317199, 47.2512667 ], [ -122.431713, 47.2507469 ], [ -122.4316252, 47.2506911 ], [ -122.4316288, 47.250435 ], [ -122.4317768, 47.2504345 ], [ -122.4318058, 47.2504649 ], [ -122.4320653, 47.2504533 ], [ -122.4320199, 47.2502667 ], [ -122.4315837, 47.2502693 ], [ -122.4315811, 47.2501396 ], [ -122.431988, 47.2501449 ], [ -122.4319643, 47.2499617 ], [ -122.4316427, 47.249946 ], [ -122.4316604, 47.2497661 ], [ -122.4317325, 47.2497724 ], [ -122.431762, 47.2496583 ], [ -122.4313803, 47.2496525 ], [ -122.4313485, 47.2495722 ], [ -122.4312905, 47.2495333 ], [ -122.4312226, 47.2495187 ], [ -122.431234, 47.2494055 ], [ -122.4311066, 47.249404 ], [ -122.4311657, 47.2493268 ], [ -122.4312488, 47.2492605 ], [ -122.4313663, 47.249239 ], [ -122.4314254, 47.249196 ], [ -122.4314213, 47.2490708 ], [ -122.4314094, 47.2490235 ], [ -122.4314027, 47.2489278 ], [ -122.4314111, 47.2488478 ], [ -122.43141, 47.2487214 ], [ -122.431382, 47.2486137 ], [ -122.4314029, 47.2485614 ], [ -122.4313634, 47.2483338 ], [ -122.4313177, 47.2482908 ], [ -122.4313224, 47.2481606 ], [ -122.4312416, 47.2480363 ], [ -122.4312167, 47.2478995 ], [ -122.4312105, 47.2477193 ], [ -122.4311918, 47.247626 ], [ -122.4311483, 47.2475576 ], [ -122.4310675, 47.2474706 ], [ -122.4309808, 47.2474396 ], [ -122.430937, 47.2474209 ], [ -122.4309121, 47.2469671 ], [ -122.4308935, 47.2468738 ], [ -122.4308624, 47.2468117 ], [ -122.4308189, 47.2467682 ], [ -122.4309929, 47.2465257 ], [ -122.4310551, 47.2465257 ], [ -122.431111, 47.2465257 ], [ -122.4311839, 47.2465154 ], [ -122.4312658, 47.2464772 ], [ -122.4313217, 47.2464196 ], [ -122.4313328, 47.2463755 ], [ -122.4313341, 47.2463118 ], [ -122.4313339, 47.2461564 ], [ -122.4313427, 47.2461009 ], [ -122.4313602, 47.2460635 ], [ -122.4314523, 47.2459876 ], [ -122.431516, 47.2458875 ], [ -122.4315405, 47.2457489 ], [ -122.4314151, 47.2455774 ], [ -122.4311389, 47.2455949 ], [ -122.4310857, 47.2452335 ], [ -122.4312395, 47.2452129 ], [ -122.4315577, 47.2450963 ], [ -122.4315834, 47.2450497 ], [ -122.4315577, 47.2449914 ], [ -122.4315147, 47.2449331 ], [ -122.4315491, 47.2448457 ], [ -122.4315147, 47.2446942 ], [ -122.4315147, 47.2444262 ], [ -122.4314117, 47.2440708 ], [ -122.4314375, 47.2439251 ], [ -122.4313774, 47.2438319 ], [ -122.431283, 47.2437619 ], [ -122.4312229, 47.2436979 ], [ -122.4311972, 47.2435638 ], [ -122.4311714, 47.2434123 ], [ -122.4311714, 47.2433133 ], [ -122.43118, 47.2432434 ], [ -122.4312744, 47.2432142 ], [ -122.4313259, 47.2431385 ], [ -122.4313602, 47.2430161 ], [ -122.4313602, 47.2429229 ], [ -122.4313431, 47.2428355 ], [ -122.4312744, 47.2427714 ], [ -122.4312229, 47.2426666 ], [ -122.4311543, 47.2425325 ], [ -122.4311028, 47.2423693 ], [ -122.4310598, 47.2421654 ], [ -122.4310598, 47.2420605 ], [ -122.4311285, 47.241909 ], [ -122.4311998, 47.241848 ], [ -122.43117, 47.2417682 ], [ -122.431084, 47.2417364 ], [ -122.431106, 47.2416519 ], [ -122.4314089, 47.2416436 ], [ -122.4317085, 47.241662 ], [ -122.4320235, 47.2417086 ], [ -122.4322958, 47.2418068 ], [ -122.4324824, 47.24195 ], [ -122.4326363, 47.2420656 ], [ -122.4326669, 47.2422112 ], [ -122.4326645, 47.2424333 ], [ -122.4326891, 47.2425465 ], [ -122.432774, 47.242595 ], [ -122.4328625, 47.2426354 ], [ -122.4328965, 47.2427879 ], [ -122.4329455, 47.2429714 ], [ -122.4329037, 47.243087 ], [ -122.4329493, 47.24329 ], [ -122.4328451, 47.2434065 ], [ -122.4326649, 47.2434823 ], [ -122.4324993, 47.243627 ], [ -122.4324855, 47.2437071 ], [ -122.4325085, 47.243857 ], [ -122.4326034, 47.2442426 ], [ -122.4326744, 47.2444532 ], [ -122.4327975, 47.2446714 ], [ -122.4329043, 47.2448607 ], [ -122.4329338, 47.2448887 ], [ -122.4330194, 47.24497 ], [ -122.433075, 47.245213 ], [ -122.4329915, 47.2452268 ], [ -122.4330598, 47.2456179 ], [ -122.4331895, 47.2456049 ], [ -122.4333018, 47.2461005 ], [ -122.4333745, 47.2464128 ], [ -122.4332631, 47.2464985 ], [ -122.4332312, 47.2465625 ], [ -122.43322, 47.2466314 ], [ -122.4332443, 47.246692 ], [ -122.433287, 47.2467654 ], [ -122.4333005, 47.2468088 ], [ -122.4332896, 47.2468654 ], [ -122.4332641, 47.2469203 ], [ -122.4332702, 47.2469864 ], [ -122.4332736, 47.2470464 ], [ -122.4332919, 47.2471131 ], [ -122.4333236, 47.2471781 ], [ -122.4333533, 47.2472604 ], [ -122.4333839, 47.2473684 ], [ -122.4334157, 47.2474341 ], [ -122.4334453, 47.2475018 ], [ -122.4334625, 47.2475635 ], [ -122.4334614, 47.2476541 ], [ -122.4334633, 47.247683 ], [ -122.4334916, 47.2477971 ], [ -122.4335275, 47.2478998 ], [ -122.433539, 47.2480172 ], [ -122.4335365, 47.2481474 ], [ -122.4335105, 47.2482337 ], [ -122.4335207, 47.2483643 ], [ -122.4335594, 47.2484902 ], [ -122.4335841, 47.2485879 ], [ -122.4336143, 47.2486961 ], [ -122.433609, 47.2487127 ], [ -122.4335792, 47.2488064 ], [ -122.4335644, 47.2489088 ], [ -122.4335801, 47.2489903 ], [ -122.4336068, 47.2490411 ], [ -122.4336642, 47.2490895 ], [ -122.4337336, 47.2491336 ], [ -122.4337965, 47.249172 ], [ -122.4338121, 47.2492005 ], [ -122.4338258, 47.2492515 ], [ -122.4338797, 47.2496017 ], [ -122.4338232, 47.2496883 ], [ -122.4338586, 47.249767 ], [ -122.4338984, 47.2497817 ], [ -122.4340409, 47.2504091 ], [ -122.4340146, 47.2505206 ], [ -122.4340658, 47.2506163 ], [ -122.4340767, 47.2506592 ], [ -122.434216, 47.25132 ], [ -122.4342186, 47.2513323 ], [ -122.4342355, 47.2514832 ], [ -122.4342087, 47.2515793 ], [ -122.4342722, 47.2516689 ], [ -122.4343308, 47.2517866 ], [ -122.434409, 47.2518314 ], [ -122.4343943, 47.2519574 ], [ -122.4344071, 47.2519824 ], [ -122.4344554, 47.2520768 ], [ -122.4344636, 47.2521313 ], [ -122.4344992, 47.2525228 ], [ -122.4347298, 47.2536754 ], [ -122.4347017, 47.2539561 ], [ -122.4348794, 47.2547225 ], [ -122.4351158, 47.2546984 ], [ -122.4353023, 47.2556306 ], [ -122.4359823, 47.2566368 ], [ -122.4365629, 47.2574599 ], [ -122.436372, 47.257514 ], [ -122.4370062, 47.2584383 ], [ -122.4372197, 47.2583724 ], [ -122.4372809, 47.2584603 ], [ -122.4373788, 47.2586046 ], [ -122.4379168, 47.2593735 ], [ -122.4379336, 47.2594011 ], [ -122.4377109, 47.2594695 ], [ -122.4377894, 47.2595883 ], [ -122.4384837, 47.2606171 ], [ -122.4387358, 47.2605375 ], [ -122.438928, 47.2608253 ], [ -122.4389336, 47.2608335 ], [ -122.4396209, 47.2618382 ], [ -122.4396249, 47.261881 ], [ -122.4396732, 47.2619674 ], [ -122.4396899, 47.2619865 ], [ -122.439704, 47.2620184 ], [ -122.4397744, 47.2619565 ], [ -122.4398341, 47.261931 ], [ -122.4399682, 47.2619347 ], [ -122.440038, 47.2619383 ], [ -122.4401278, 47.2619492 ], [ -122.4402029, 47.2619702 ], [ -122.4402894, 47.2620047 ], [ -122.4404302, 47.2621941 ], [ -122.4405549, 47.2622769 ], [ -122.4407414, 47.2623342 ], [ -122.4410512, 47.2624999 ], [ -122.4411249, 47.2625581 ], [ -122.4413544, 47.2627355 ], [ -122.4415578, 47.2629552 ], [ -122.4416377, 47.2630513 ], [ -122.4417095, 47.2630975 ], [ -122.4417352, 47.2632186 ], [ -122.4418061, 47.2633135 ], [ -122.4418696, 47.2635482 ], [ -122.4419376, 47.2637166 ], [ -122.4420046, 47.2638097 ], [ -122.442195, 47.2640503 ], [ -122.442316, 47.2641907 ], [ -122.4424942, 47.2644022 ], [ -122.4426099, 47.2645299 ], [ -122.4427343, 47.2646981 ], [ -122.4428309, 47.2649105 ], [ -122.4436482, 47.2658789 ], [ -122.4437575, 47.2659882 ], [ -122.4438242, 47.2660792 ], [ -122.443868, 47.2661585 ], [ -122.4439104, 47.2662007 ], [ -122.4442204, 47.2664267 ], [ -122.4444775, 47.266689 ], [ -122.4446246, 47.2668212 ], [ -122.4448034, 47.2669588 ], [ -122.4449633, 47.2670728 ], [ -122.4450675, 47.2671682 ], [ -122.4451526, 47.2672403 ], [ -122.445303, 47.2673595 ], [ -122.4454196, 47.2674203 ], [ -122.4455922, 47.2674947 ], [ -122.4457775, 47.2675632 ], [ -122.4459603, 47.2676219 ], [ -122.4462223, 47.2677263 ], [ -122.4465626, 47.2678544 ], [ -122.4468638, 47.2679631 ], [ -122.4471016, 47.2680592 ], [ -122.4472624, 47.2681222 ], [ -122.4473721, 47.2681692 ], [ -122.4475132, 47.26824 ], [ -122.4475549, 47.2682559 ], [ -122.4476112, 47.2682736 ], [ -122.4476783, 47.2682904 ], [ -122.4477365, 47.2682995 ], [ -122.4478542, 47.268302 ], [ -122.4479153, 47.2683163 ], [ -122.4479641, 47.2683429 ], [ -122.4481609, 47.2685021 ], [ -122.4482654, 47.2686141 ], [ -122.4485903, 47.2689651 ], [ -122.4487826, 47.2691587 ], [ -122.4488954, 47.2693335 ], [ -122.4490381, 47.2694398 ], [ -122.4491352, 47.2695677 ], [ -122.4492221, 47.2696279 ], [ -122.4494443, 47.2698342 ], [ -122.449629, 47.2699449 ], [ -122.449786, 47.2700892 ], [ -122.4499308, 47.2702315 ], [ -122.4502344, 47.2704546 ], [ -122.4507978, 47.2708511 ], [ -122.4510505, 47.2710081 ], [ -122.4512479, 47.2711313 ], [ -122.4514579, 47.2712828 ], [ -122.4516529, 47.2713842 ], [ -122.4518303, 47.2715212 ], [ -122.4522335, 47.2717063 ], [ -122.4526214, 47.2719017 ], [ -122.453393, 47.2722779 ], [ -122.4542195, 47.2726706 ], [ -122.4544782, 47.2727677 ], [ -122.4544926, 47.2727726 ], [ -122.4545312, 47.2727854 ], [ -122.4546156, 47.2728134 ], [ -122.4551768, 47.273042 ], [ -122.4556016, 47.2731352 ], [ -122.4567114, 47.2733755 ], [ -122.4573797, 47.2735242 ], [ -122.4571725, 47.2738934 ], [ -122.4571434, 47.2739447 ], [ -122.4571209, 47.2739853 ], [ -122.4570981, 47.2740264 ], [ -122.4571635, 47.2740653 ], [ -122.4572961, 47.2740887 ], [ -122.4573694, 47.2740894 ], [ -122.4573982, 47.2740759 ], [ -122.457414, 47.2740749 ], [ -122.4574682, 47.274092 ], [ -122.4575406, 47.2740892 ], [ -122.4575712, 47.2740926 ], [ -122.4576619, 47.274035 ], [ -122.4577712, 47.2740714 ], [ -122.4577865, 47.2740633 ], [ -122.4578337, 47.274022 ], [ -122.4578307, 47.2742284 ], [ -122.458767, 47.2745717 ], [ -122.4595993, 47.2747912 ], [ -122.4596866, 47.2748354 ], [ -122.4596655, 47.2750381 ], [ -122.4606792, 47.2753202 ], [ -122.4610683, 47.2754058 ], [ -122.461301, 47.2755092 ], [ -122.4616872, 47.2756682 ], [ -122.461925, 47.2757583 ], [ -122.4621201, 47.2757804 ], [ -122.4623098, 47.2757952 ], [ -122.4624089, 47.2757877 ], [ -122.4625283, 47.2757551 ], [ -122.4626439, 47.2756999 ], [ -122.4627315, 47.2756132 ], [ -122.4628145, 47.2755863 ], [ -122.4631563, 47.2755891 ], [ -122.4637687, 47.2756545 ], [ -122.4641339, 47.2757222 ], [ -122.4644747, 47.2758213 ], [ -122.4653017, 47.2760337 ], [ -122.4657317, 47.2761295 ], [ -122.4658617, 47.2761356 ], [ -122.4659212, 47.2761687 ], [ -122.4660909, 47.2761993 ], [ -122.4663361, 47.2762189 ], [ -122.4666449, 47.2762919 ], [ -122.4670854, 47.2764038 ], [ -122.4672036, 47.2764531 ], [ -122.4673218, 47.2765024 ], [ -122.46744, 47.2765516 ], [ -122.4675998, 47.2766205 ], [ -122.4677637, 47.2766574 ], [ -122.4678796, 47.2766841 ], [ -122.4679011, 47.2767038 ], [ -122.467939, 47.276792 ], [ -122.4680293, 47.2768128 ], [ -122.4683325, 47.2766401 ], [ -122.4684444, 47.2766291 ], [ -122.468816, 47.2766669 ], [ -122.469016, 47.2767146 ], [ -122.4691393, 47.276723 ], [ -122.4692635, 47.2767579 ], [ -122.4693737, 47.276794 ], [ -122.4694097, 47.2767999 ], [ -122.4694448, 47.2768147 ], [ -122.4694638, 47.2768373 ], [ -122.4694694, 47.2768622 ], [ -122.4694584, 47.2768992 ], [ -122.4694376, 47.276924 ], [ -122.4693607, 47.2769975 ], [ -122.4693407, 47.2770255 ], [ -122.4693242, 47.2770633 ], [ -122.4693119, 47.2771197 ], [ -122.4693076, 47.277157 ], [ -122.4693084, 47.2771879 ], [ -122.4693127, 47.2772155 ], [ -122.469322, 47.2772438 ], [ -122.4693409, 47.2772806 ], [ -122.4693674, 47.2773191 ], [ -122.4693996, 47.277358 ], [ -122.4694398, 47.2773912 ], [ -122.4696194, 47.2775021 ], [ -122.4696962, 47.2775495 ], [ -122.4699069, 47.2776761 ], [ -122.4700018, 47.2777242 ], [ -122.4701076, 47.2777625 ], [ -122.4702408, 47.2777954 ], [ -122.4703613, 47.277801 ], [ -122.4704945, 47.2777809 ], [ -122.4706217, 47.2777498 ], [ -122.4706709, 47.2777312 ], [ -122.470744, 47.2777345 ], [ -122.4708096, 47.2777639 ], [ -122.4708203, 47.2777641 ], [ -122.4709189, 47.277766 ], [ -122.4710208, 47.2777623 ], [ -122.47123, 47.2778169 ], [ -122.4713963, 47.2778933 ], [ -122.4715573, 47.277937 ], [ -122.4719811, 47.2780498 ], [ -122.4724614, 47.2781763 ], [ -122.4729549, 47.2783205 ], [ -122.4730544, 47.2783393 ], [ -122.4731516, 47.2784066 ], [ -122.4732568, 47.2784765 ], [ -122.4733797, 47.2785739 ], [ -122.473485, 47.2786716 ], [ -122.4735738, 47.2787115 ], [ -122.4736899, 47.2787404 ], [ -122.4737746, 47.2787786 ], [ -122.4738579, 47.2787937 ], [ -122.4747595, 47.2792352 ], [ -122.4747707, 47.2792451 ], [ -122.4747781, 47.2792583 ], [ -122.4747816, 47.2792683 ], [ -122.4747806, 47.2792814 ], [ -122.4747753, 47.2792962 ], [ -122.4747656, 47.2793133 ], [ -122.4747405, 47.2793368 ], [ -122.474685, 47.279387 ], [ -122.474578, 47.2794713 ], [ -122.4744388, 47.2795777 ], [ -122.4744088, 47.2796077 ], [ -122.4743992, 47.279628 ], [ -122.4743913, 47.2796482 ], [ -122.4743866, 47.2796808 ], [ -122.4743887, 47.279709 ], [ -122.4744005, 47.2797511 ], [ -122.4744132, 47.2797822 ], [ -122.4744268, 47.2798056 ], [ -122.4744625, 47.2798517 ], [ -122.4745627, 47.2799522 ], [ -122.4746297, 47.2800058 ], [ -122.4746874, 47.2800366 ], [ -122.4747285, 47.2800605 ], [ -122.4747609, 47.2800699 ], [ -122.4748044, 47.2800722 ], [ -122.4748617, 47.2800847 ], [ -122.4749551, 47.2801277 ], [ -122.4750463, 47.280184 ], [ -122.4750656, 47.280198 ], [ -122.4750828, 47.2802152 ], [ -122.4750883, 47.2802218 ], [ -122.4750915, 47.280227 ], [ -122.4750935, 47.2802339 ], [ -122.4750937, 47.2802387 ], [ -122.4750908, 47.2802468 ], [ -122.4750864, 47.2802538 ], [ -122.4750781, 47.280263 ], [ -122.4750247, 47.2803048 ], [ -122.475099, 47.2803482 ], [ -122.4751313, 47.2803589 ], [ -122.4751701, 47.2803606 ], [ -122.4751933, 47.2803598 ], [ -122.475223, 47.280356 ], [ -122.475281, 47.2803401 ], [ -122.4753289, 47.2803318 ], [ -122.4753552, 47.2803347 ], [ -122.4753775, 47.280343 ], [ -122.4756969, 47.2805318 ], [ -122.4759079, 47.2803792 ], [ -122.4758952, 47.2803142 ], [ -122.4759819, 47.280219 ], [ -122.476063, 47.2802359 ], [ -122.476134, 47.2801921 ], [ -122.4761679, 47.2801805 ], [ -122.476211, 47.2801778 ], [ -122.4762747, 47.2801855 ], [ -122.4764562, 47.2802387 ], [ -122.4766906, 47.2803101 ], [ -122.4769126, 47.2804117 ], [ -122.47709, 47.2804912 ], [ -122.4772914, 47.2805836 ], [ -122.4777819, 47.2808323 ], [ -122.4779774, 47.2809303 ], [ -122.4780292, 47.2809605 ], [ -122.4780762, 47.2809917 ], [ -122.4780972, 47.2810078 ], [ -122.4781187, 47.2810279 ], [ -122.4781377, 47.2810516 ], [ -122.4781556, 47.2810806 ], [ -122.4781789, 47.2811145 ], [ -122.4782012, 47.2811377 ], [ -122.4782316, 47.2811611 ], [ -122.4782875, 47.2811962 ], [ -122.4783181, 47.281214 ], [ -122.4783573, 47.2812332 ], [ -122.4785, 47.2813067 ], [ -122.4786249, 47.281367 ], [ -122.4787841, 47.2814402 ], [ -122.4789207, 47.2815081 ], [ -122.4790093, 47.281552 ], [ -122.4790228, 47.2815693 ], [ -122.4790315, 47.2815915 ], [ -122.4790361, 47.281614 ], [ -122.4790368, 47.2816459 ], [ -122.4790234, 47.2817345 ], [ -122.4790194, 47.2817852 ], [ -122.4790223, 47.281845 ], [ -122.4790254, 47.2818742 ], [ -122.4790407, 47.2819148 ], [ -122.4790581, 47.2819359 ], [ -122.4790905, 47.2819664 ], [ -122.4791833, 47.2820225 ], [ -122.479308, 47.2820865 ], [ -122.4794134, 47.282141 ], [ -122.4798778, 47.2823836 ], [ -122.4800691, 47.2824777 ], [ -122.4803142, 47.28257 ], [ -122.4804094, 47.2825815 ], [ -122.4805203, 47.2825613 ], [ -122.4806362, 47.2825153 ], [ -122.4807142, 47.2824917 ], [ -122.4807801, 47.2824713 ], [ -122.4808585, 47.2824612 ], [ -122.4809185, 47.2824664 ], [ -122.4809839, 47.2824789 ], [ -122.4810415, 47.2824997 ], [ -122.4815525, 47.2827413 ], [ -122.4816384, 47.2827939 ], [ -122.4816705, 47.2828207 ], [ -122.481703, 47.2828567 ], [ -122.4817373, 47.2828998 ], [ -122.4817747, 47.2829561 ], [ -122.4818299, 47.2829943 ], [ -122.4818655, 47.2830253 ], [ -122.4819128, 47.2830628 ], [ -122.4819729, 47.2830895 ], [ -122.482051, 47.2831255 ], [ -122.4825662, 47.2834159 ], [ -122.4830249, 47.2836532 ], [ -122.4832938, 47.283795 ], [ -122.4834929, 47.2838896 ], [ -122.4836818, 47.283982 ], [ -122.4838419, 47.2840702 ], [ -122.4839516, 47.2841324 ], [ -122.4840047, 47.2841444 ], [ -122.4840561, 47.2841263 ], [ -122.4840844, 47.2840687 ], [ -122.4841393, 47.2840819 ], [ -122.4841951, 47.2841431 ], [ -122.4842703, 47.2841624 ], [ -122.4843022, 47.2842008 ], [ -122.4844821, 47.2843272 ], [ -122.4846157, 47.2844014 ], [ -122.4847928, 47.284506 ], [ -122.484814, 47.2845396 ], [ -122.4850164, 47.2846748 ], [ -122.4851517, 47.2847663 ], [ -122.4851919, 47.2848294 ], [ -122.4852103, 47.2848985 ], [ -122.4852188, 47.2849617 ], [ -122.485255, 47.2850113 ], [ -122.4853217, 47.2850734 ], [ -122.4854418, 47.2851587 ], [ -122.4858523, 47.2854202 ], [ -122.4859796, 47.2855152 ], [ -122.4860923, 47.2855552 ], [ -122.4863407, 47.2855952 ], [ -122.4864793, 47.2856959 ], [ -122.4866035, 47.2857758 ], [ -122.4865695, 47.285823 ], [ -122.4865894, 47.285865 ], [ -122.486679, 47.2859206 ], [ -122.4867459, 47.2859306 ], [ -122.4868429, 47.2859926 ], [ -122.4869559, 47.2860685 ], [ -122.4870251, 47.2861153 ], [ -122.4872245, 47.2862508 ], [ -122.4873396, 47.2863588 ], [ -122.4873714, 47.286424 ], [ -122.4873813, 47.286549 ], [ -122.4873773, 47.2866489 ], [ -122.4873361, 47.2867139 ], [ -122.4873711, 47.2867651 ], [ -122.4874329, 47.2868008 ], [ -122.4874728, 47.2868718 ], [ -122.4874969, 47.2869018 ], [ -122.4876214, 47.2869905 ], [ -122.4877967, 47.287091 ], [ -122.4878265, 47.2871616 ], [ -122.48791, 47.2872455 ], [ -122.4880382, 47.2873333 ], [ -122.4880771, 47.28736 ], [ -122.488069, 47.2873861 ], [ -122.4880323, 47.2874443 ], [ -122.4880133, 47.2874961 ], [ -122.4880088, 47.2875304 ], [ -122.4880234, 47.2875674 ], [ -122.4880619, 47.287607 ], [ -122.4881129, 47.2876334 ], [ -122.4881713, 47.2876591 ], [ -122.4882422, 47.2876683 ], [ -122.4883385, 47.2876653 ], [ -122.4884374, 47.2876368 ], [ -122.4885264, 47.287615 ], [ -122.4886157, 47.2875908 ], [ -122.4887, 47.2875793 ], [ -122.4888155, 47.2875572 ], [ -122.4889425, 47.2875503 ], [ -122.4893246, 47.2877503 ], [ -122.4895223, 47.2878406 ], [ -122.4897646, 47.2879887 ], [ -122.4899799, 47.2881638 ], [ -122.4900785, 47.2882989 ], [ -122.4901895, 47.2884488 ], [ -122.490217, 47.2885043 ], [ -122.4902534, 47.2885791 ], [ -122.490242, 47.2886847 ], [ -122.4902986, 47.2888037 ], [ -122.4904219, 47.288926 ], [ -122.4905887, 47.2890218 ], [ -122.4907322, 47.2890915 ], [ -122.4909963, 47.2892386 ], [ -122.4913171, 47.2894564 ], [ -122.4916226, 47.2897184 ], [ -122.4916831, 47.2897905 ], [ -122.4916695, 47.2898512 ], [ -122.4915357, 47.2899229 ], [ -122.4914843, 47.2899769 ], [ -122.4914925, 47.2900482 ], [ -122.491655, 47.2901722 ], [ -122.4919891, 47.2903943 ], [ -122.4925443, 47.2907178 ], [ -122.493001, 47.2909914 ], [ -122.493414, 47.2912639 ], [ -122.4936561, 47.2914886 ], [ -122.4939535, 47.291739 ], [ -122.4942395, 47.2919616 ], [ -122.4944245, 47.2921131 ], [ -122.4946052, 47.2922378 ], [ -122.4948528, 47.2924317 ], [ -122.4950207, 47.2925723 ], [ -122.4952039, 47.2926846 ], [ -122.495429, 47.292825 ], [ -122.495729, 47.2930037 ], [ -122.4959517, 47.2931851 ], [ -122.495953, 47.293253 ], [ -122.49597, 47.2933332 ], [ -122.4961052, 47.2933552 ], [ -122.4963227, 47.2933958 ], [ -122.4966751, 47.2935409 ], [ -122.4970396, 47.2937787 ], [ -122.4974127, 47.2940608 ], [ -122.4976579, 47.2942747 ], [ -122.4977695, 47.2943831 ], [ -122.4978094, 47.2945021 ], [ -122.4978933, 47.2945625 ], [ -122.4980431, 47.2946155 ], [ -122.4981727, 47.2945828 ], [ -122.4983768, 47.2946585 ], [ -122.4986416, 47.2947325 ], [ -122.498956, 47.2948803 ], [ -122.4991804, 47.2949549 ], [ -122.499516, 47.2951528 ], [ -122.4996944, 47.2952979 ], [ -122.4998142, 47.2954819 ], [ -122.4998008, 47.2954964 ], [ -122.499079, 47.2962762 ], [ -122.4989956, 47.2963523 ], [ -122.4989234, 47.2964662 ], [ -122.4990011, 47.2965806 ], [ -122.4991597, 47.2966593 ], [ -122.4996432, 47.2968863 ], [ -122.5002034, 47.2972558 ], [ -122.5006332, 47.2975465 ], [ -122.5008777, 47.297749 ], [ -122.5009933, 47.2978641 ], [ -122.5013418, 47.2980502 ], [ -122.5016062, 47.2982901 ], [ -122.5019585, 47.2986316 ], [ -122.5019496, 47.2986637 ], [ -122.5028162, 47.2992934 ], [ -122.5029057, 47.2992441 ], [ -122.5031353, 47.2994676 ], [ -122.5034429, 47.2996772 ], [ -122.5037582, 47.2998969 ], [ -122.5038927, 47.3000128 ], [ -122.504039, 47.300059 ], [ -122.5042358, 47.3001523 ], [ -122.5044134, 47.3002949 ], [ -122.5045836, 47.3004447 ], [ -122.504773, 47.3006338 ], [ -122.5049464, 47.3007885 ], [ -122.5051562, 47.3009132 ], [ -122.5052848, 47.3009829 ], [ -122.5052272, 47.298532 ], [ -122.505262, 47.297262 ], [ -122.505177, 47.294848 ], [ -122.505168, 47.294356 ], [ -122.5156876, 47.294421 ], [ -122.5155859, 47.3018129 ], [ -122.515071, 47.3018088 ], [ -122.5149699, 47.301808 ], [ -122.5103145, 47.3017709 ], [ -122.5094076, 47.3017581 ], [ -122.5093693, 47.3017576 ], [ -122.507362, 47.3026309 ], [ -122.5071846, 47.3027101 ], [ -122.5070111, 47.3027875 ], [ -122.5070213, 47.3028004 ], [ -122.5070938, 47.3029026 ], [ -122.5070536, 47.3030063 ], [ -122.5070286, 47.30315 ], [ -122.5071778, 47.3033766 ], [ -122.5072881, 47.3036456 ], [ -122.5073636, 47.3040096 ], [ -122.5075266, 47.3048403 ], [ -122.5077002, 47.3054121 ], [ -122.5079687, 47.3059659 ], [ -122.5082549, 47.3063421 ], [ -122.5085692, 47.3065907 ], [ -122.5089782, 47.3067799 ], [ -122.5094493, 47.3069365 ], [ -122.5099506, 47.3070545 ], [ -122.5103116, 47.3071261 ], [ -122.5106363, 47.3072 ], [ -122.5115316, 47.3072923 ], [ -122.5118708, 47.3072869 ], [ -122.5120845, 47.3072618 ], [ -122.5124455, 47.3073352 ], [ -122.5126048, 47.3073356 ], [ -122.5127514, 47.3073093 ], [ -122.5128988, 47.3072451 ], [ -122.5130054, 47.3071883 ], [ -122.5130966, 47.3071119 ], [ -122.5131342, 47.3070028 ], [ -122.5131395, 47.3069009 ], [ -122.5131342, 47.3067627 ], [ -122.5130966, 47.3066172 ], [ -122.5130001, 47.3065044 ], [ -122.5128713, 47.306388 ], [ -122.5127162, 47.306295 ], [ -122.5125065, 47.3061552 ], [ -122.5123617, 47.3060697 ], [ -122.5122464, 47.3060261 ], [ -122.512123, 47.305997 ], [ -122.5119594, 47.3059697 ], [ -122.5117367, 47.3059533 ], [ -122.5113773, 47.3059206 ], [ -122.5113371, 47.3059116 ], [ -122.5112985, 47.3058998 ], [ -122.5112619, 47.3058854 ], [ -122.5112278, 47.3058685 ], [ -122.5111964, 47.3058492 ], [ -122.5111681, 47.3058279 ], [ -122.5087743, 47.3038023 ], [ -122.5075391, 47.3028385 ], [ -122.5075255, 47.3028283 ], [ -122.5075137, 47.3028172 ], [ -122.507504, 47.3028052 ], [ -122.5074965, 47.3027924 ], [ -122.5074912, 47.3027792 ], [ -122.5074883, 47.3027656 ], [ -122.5074877, 47.3027519 ], [ -122.5074895, 47.3027383 ], [ -122.5074938, 47.3027249 ], [ -122.5075003, 47.3027119 ], [ -122.507509, 47.3026995 ], [ -122.5075198, 47.3026879 ], [ -122.5075326, 47.3026773 ], [ -122.5075471, 47.3026678 ], [ -122.5075632, 47.3026595 ], [ -122.5086388, 47.3022203 ], [ -122.5087407, 47.3022066 ], [ -122.5088373, 47.302232 ], [ -122.5090706, 47.3023357 ], [ -122.5091596, 47.3023544 ], [ -122.5092355, 47.302342 ], [ -122.50952, 47.3022182 ], [ -122.5095722, 47.3022575 ], [ -122.5096795, 47.3022066 ], [ -122.5097921, 47.302323 ], [ -122.5098377, 47.3023048 ], [ -122.5106585, 47.303056 ], [ -122.5110823, 47.3033907 ], [ -122.5119272, 47.3039909 ], [ -122.5118836, 47.3040201 ], [ -122.5132536, 47.3049391 ], [ -122.5132928, 47.3051232 ], [ -122.5131298, 47.305302 ], [ -122.5131721, 47.3053221 ], [ -122.5132777, 47.3053721 ], [ -122.5134047, 47.3054324 ], [ -122.5135381, 47.3054956 ], [ -122.5140806, 47.3057528 ], [ -122.5142015, 47.3058159 ], [ -122.5142644, 47.3058534 ], [ -122.5142908, 47.3058658 ], [ -122.514428, 47.3059303 ], [ -122.5146025, 47.3060194 ], [ -122.5145629, 47.306055 ], [ -122.5146227, 47.3060856 ], [ -122.5146623, 47.3060499 ], [ -122.5152468, 47.3063354 ], [ -122.5152152, 47.3063742 ], [ -122.5152735, 47.3064017 ], [ -122.5153105, 47.3063642 ], [ -122.51552, 47.306459 ], [ -122.5158203, 47.3065872 ], [ -122.5157864, 47.3066257 ], [ -122.5158482, 47.3066507 ], [ -122.5158821, 47.3066123 ], [ -122.5162006, 47.3067413 ], [ -122.5163291, 47.3066915 ], [ -122.5163639, 47.3066487 ], [ -122.5164498, 47.3066224 ], [ -122.5165933, 47.3066278 ], [ -122.5168427, 47.3067033 ], [ -122.5174475, 47.3070297 ], [ -122.5176983, 47.3071798 ], [ -122.5181959, 47.3071496 ], [ -122.5190012, 47.3074553 ], [ -122.519602, 47.30773 ], [ -122.5200392, 47.3079864 ], [ -122.5205032, 47.3082737 ], [ -122.5209404, 47.3085429 ], [ -122.5214125, 47.3088139 ], [ -122.5218765, 47.3090958 ], [ -122.5221179, 47.3092576 ], [ -122.5223137, 47.309394 ], [ -122.5225605, 47.3095232 ], [ -122.5230701, 47.3097796 ], [ -122.5236173, 47.3101179 ], [ -122.5242154, 47.3104725 ], [ -122.5246178, 47.3107344 ], [ -122.5249933, 47.310958 ], [ -122.525358, 47.311209 ], [ -122.5257952, 47.3114927 ], [ -122.5260125, 47.3116436 ], [ -122.5261868, 47.3117528 ], [ -122.5264041, 47.3119164 ], [ -122.5268628, 47.3122147 ], [ -122.5271793, 47.3124529 ], [ -122.5275575, 47.3127257 ], [ -122.5278968, 47.312963 ], [ -122.5281918, 47.3131739 ], [ -122.5286236, 47.3135086 ], [ -122.5290474, 47.3138468 ], [ -122.5294176, 47.3141287 ], [ -122.5298011, 47.3143887 ], [ -122.5301337, 47.3146451 ], [ -122.5304851, 47.3149088 ], [ -122.5308821, 47.3151979 ], [ -122.5311047, 47.3153616 ], [ -122.5313112, 47.3154961 ], [ -122.5315338, 47.3156562 ], [ -122.5317457, 47.3158071 ], [ -122.531912, 47.3159398 ], [ -122.5322446, 47.3161726 ], [ -122.532765, 47.3165345 ], [ -122.5330359, 47.3167272 ], [ -122.5333309, 47.3169036 ], [ -122.5337949, 47.3171491 ], [ -122.5341597, 47.3173509 ], [ -122.5344521, 47.3174455 ], [ -122.5346398, 47.31752 ], [ -122.5349027, 47.3176128 ], [ -122.5353399, 47.3177109 ], [ -122.535828, 47.3178219 ], [ -122.5363484, 47.3179273 ], [ -122.5367963, 47.3180055 ], [ -122.537542, 47.3181255 ], [ -122.5383746, 47.3183065 ], [ -122.5389803, 47.3184626 ], [ -122.5396686, 47.3186001 ], [ -122.5402677, 47.3187244 ], [ -122.5407099, 47.3188436 ], [ -122.5412099, 47.3189203 ], [ -122.5415582, 47.3189621 ], [ -122.5419844, 47.31898 ], [ -122.5428932, 47.3189772 ], [ -122.5438147, 47.318937 ], [ -122.5443018, 47.3188699 ], [ -122.5449026, 47.3187244 ], [ -122.5453747, 47.3185499 ], [ -122.5460283, 47.3183949 ], [ -122.5464905, 47.3182299 ], [ -122.5469196, 47.3181426 ], [ -122.5474499, 47.3179556 ], [ -122.5475241, 47.3178991 ], [ -122.54757, 47.317845 ], [ -122.5476404, 47.3177338 ], [ -122.5476688, 47.3176598 ], [ -122.5476685, 47.3175944 ], [ -122.5476131, 47.3174934 ], [ -122.5475223, 47.31742 ], [ -122.5474346, 47.3172989 ], [ -122.5474197, 47.3171893 ], [ -122.5474233, 47.3171442 ], [ -122.5474338, 47.3170999 ], [ -122.547474, 47.3170544 ], [ -122.5475298, 47.3170207 ], [ -122.5476419, 47.3169562 ], [ -122.5477506, 47.3168686 ], [ -122.5478163, 47.3167725 ], [ -122.547839, 47.3166454 ], [ -122.5478423, 47.3165667 ], [ -122.547825, 47.316475 ], [ -122.5478439, 47.3162724 ], [ -122.5478003, 47.3161059 ], [ -122.5477081, 47.3158399 ], [ -122.5476366, 47.3157517 ], [ -122.5474714, 47.3156571 ], [ -122.5472032, 47.3154594 ], [ -122.5468798, 47.3151674 ], [ -122.5463366, 47.3144757 ], [ -122.5459313, 47.3140729 ], [ -122.5455586, 47.3136729 ], [ -122.5451836, 47.3133004 ], [ -122.5448928, 47.3129966 ], [ -122.5445102, 47.3126778 ], [ -122.5440614, 47.3122702 ], [ -122.5436864, 47.3120122 ], [ -122.5433116, 47.3117542 ], [ -122.5429368, 47.3114964 ], [ -122.5423335, 47.3112542 ], [ -122.5421024, 47.3111083 ], [ -122.541718, 47.3107853 ], [ -122.5413752, 47.310474 ], [ -122.5409256, 47.3100713 ], [ -122.5404312, 47.3096152 ], [ -122.5401448, 47.309309 ], [ -122.5398587, 47.3090035 ], [ -122.5395094, 47.3086309 ], [ -122.5392099, 47.3083363 ], [ -122.5389779, 47.3080902 ], [ -122.5387484, 47.3078006 ], [ -122.5384855, 47.3075154 ], [ -122.5382877, 47.3072825 ], [ -122.538064, 47.307031 ], [ -122.5378227, 47.3067318 ], [ -122.5376566, 47.3064855 ], [ -122.5372646, 47.3058928 ], [ -122.5371028, 47.3056882 ], [ -122.536906, 47.3054731 ], [ -122.5366527, 47.3051195 ], [ -122.5365581, 47.3049091 ], [ -122.5363699, 47.3045899 ], [ -122.5360288, 47.3040554 ], [ -122.5356462, 47.303565 ], [ -122.5353763, 47.3032371 ], [ -122.5354475, 47.3031233 ], [ -122.5354099, 47.3030542 ], [ -122.535367, 47.302956 ], [ -122.535318, 47.3028905 ], [ -122.5346556, 47.3021949 ], [ -122.534616, 47.3020283 ], [ -122.53461, 47.3019701 ], [ -122.534594, 47.301901 ], [ -122.5345141, 47.3018537 ], [ -122.5344175, 47.3018137 ], [ -122.5343049, 47.3017955 ], [ -122.5341738, 47.3015972 ], [ -122.5338979, 47.3011625 ], [ -122.5337411, 47.3009273 ], [ -122.5335913, 47.3006525 ], [ -122.5333994, 47.3002994 ], [ -122.5331954, 47.2997577 ], [ -122.5330959, 47.2994894 ], [ -122.5329262, 47.2991273 ], [ -122.5327241, 47.2987464 ], [ -122.5324652, 47.2983504 ], [ -122.5323139, 47.2980977 ], [ -122.5320676, 47.2976283 ], [ -122.531905, 47.2973321 ], [ -122.5317805, 47.2971309 ], [ -122.531623, 47.2968521 ], [ -122.5314675, 47.2966317 ], [ -122.5312821, 47.2962759 ], [ -122.5310012, 47.2958481 ], [ -122.5307308, 47.2954395 ], [ -122.5304715, 47.2950007 ], [ -122.5300677, 47.2944433 ], [ -122.5296002, 47.293938 ], [ -122.5294028, 47.2937751 ], [ -122.529152, 47.2933991 ], [ -122.528875, 47.292909 ], [ -122.5287163, 47.2926805 ], [ -122.5287586, 47.2923656 ], [ -122.5286927, 47.2918672 ], [ -122.5286994, 47.2916108 ], [ -122.5287871, 47.2913649 ], [ -122.5289657, 47.2908078 ], [ -122.529071, 47.289864 ], [ -122.5291098, 47.2891284 ], [ -122.5292777, 47.2882059 ], [ -122.5293475, 47.2871355 ], [ -122.5294132, 47.2861298 ], [ -122.5294491, 47.2855855 ], [ -122.5294716, 47.2848868 ], [ -122.529496, 47.2840631 ], [ -122.5296206, 47.2834148 ], [ -122.5299394, 47.2826586 ], [ -122.5303018, 47.2817442 ], [ -122.5306034, 47.2810861 ], [ -122.5310512, 47.2802377 ], [ -122.5313225, 47.2798409 ], [ -122.531513, 47.279545 ], [ -122.5318329, 47.2790265 ], [ -122.5322187, 47.2785365 ], [ -122.5326092, 47.278016 ], [ -122.5328434, 47.2775416 ], [ -122.5332475, 47.276964 ], [ -122.5334871, 47.2765808 ], [ -122.5338213, 47.2760693 ], [ -122.5341959, 47.2754016 ], [ -122.5344769, 47.2749996 ], [ -122.534775, 47.2746622 ], [ -122.5350018, 47.2742802 ], [ -122.5353325, 47.2738438 ], [ -122.5357616, 47.273407 ], [ -122.5361092, 47.2730011 ], [ -122.53652, 47.2725982 ], [ -122.5368345, 47.2721549 ], [ -122.5371413, 47.2718054 ], [ -122.5374122, 47.2714407 ], [ -122.5376115, 47.271259 ], [ -122.5377912, 47.2711219 ], [ -122.5379995, 47.2709585 ], [ -122.5382507, 47.2706698 ], [ -122.5389412, 47.269969 ], [ -122.5394094, 47.2695633 ], [ -122.5397132, 47.269195 ], [ -122.5400492, 47.268895 ], [ -122.5403133, 47.2686551 ], [ -122.540654, 47.2683984 ], [ -122.5410402, 47.268049 ], [ -122.5414307, 47.2676369 ], [ -122.5416973, 47.2673941 ], [ -122.5420273, 47.2670974 ], [ -122.5425852, 47.266622 ], [ -122.5428856, 47.2663308 ], [ -122.5432718, 47.2659522 ], [ -122.5435185, 47.2657216 ], [ -122.543736, 47.2654669 ], [ -122.5440739, 47.2650452 ], [ -122.5443217, 47.2648037 ], [ -122.5444945, 47.2646039 ], [ -122.5448474, 47.2642546 ], [ -122.5452311, 47.2638053 ], [ -122.545446, 47.2636155 ], [ -122.5455853, 47.2634039 ], [ -122.5456775, 47.2632419 ], [ -122.5457609, 47.2630691 ], [ -122.5459755, 47.2626322 ], [ -122.5461979, 47.2622732 ], [ -122.5464046, 47.2619332 ], [ -122.5468296, 47.2612972 ], [ -122.5472089, 47.2606652 ], [ -122.5476044, 47.2601408 ], [ -122.547903, 47.2597127 ], [ -122.5482572, 47.2591253 ], [ -122.5486673, 47.2584333 ], [ -122.5488937, 47.2581178 ], [ -122.5491083, 47.2578265 ], [ -122.5494442, 47.2572421 ], [ -122.5496202, 47.2570262 ], [ -122.5497225, 47.2568364 ], [ -122.5498902, 47.2565198 ], [ -122.5500421, 47.2562468 ], [ -122.5503002, 47.2559343 ], [ -122.5504318, 47.2555686 ], [ -122.5505345, 47.2552431 ], [ -122.550948, 47.2549638 ], [ -122.5511331, 47.254736 ], [ -122.551198, 47.2546797 ], [ -122.5512744, 47.2546503 ], [ -122.5513717, 47.2546593 ], [ -122.5514788, 47.2546732 ], [ -122.5516219, 47.2546849 ], [ -122.5517365, 47.2546793 ], [ -122.55187, 47.2546634 ], [ -122.551996, 47.2546293 ], [ -122.5521551, 47.2545634 ], [ -122.552318, 47.2544473 ], [ -122.5524961, 47.2542697 ], [ -122.5526478, 47.2540975 ], [ -122.5528284, 47.2538536 ], [ -122.5529873, 47.2535833 ], [ -122.5531394, 47.2532434 ], [ -122.5532545, 47.2529145 ], [ -122.5533441, 47.2524904 ], [ -122.5533771, 47.2520461 ], [ -122.5533606, 47.2516927 ], [ -122.5533094, 47.2513217 ], [ -122.5532152, 47.2508723 ], [ -122.553102, 47.2504919 ], [ -122.5530155, 47.2502495 ], [ -122.5529217, 47.2499967 ], [ -122.5528187, 47.2497811 ], [ -122.5526901, 47.2495706 ], [ -122.5525484, 47.2493852 ], [ -122.5523938, 47.2492354 ], [ -122.5521622, 47.2490972 ], [ -122.5519727, 47.2489833 ], [ -122.5519837, 47.2488825 ], [ -122.5519913, 47.2488125 ], [ -122.5521707, 47.2485944 ], [ -122.5524325, 47.2482171 ], [ -122.5525998, 47.2479894 ], [ -122.5527732, 47.2478211 ], [ -122.5529422, 47.2476308 ], [ -122.5532037, 47.2473905 ], [ -122.5535484, 47.2470664 ], [ -122.5537857, 47.2468461 ], [ -122.5539051, 47.2467587 ], [ -122.5542149, 47.2465475 ], [ -122.5544912, 47.2463809 ], [ -122.554801, 47.2461478 ], [ -122.5549137, 47.2461153 ], [ -122.5549903, 47.2460374 ], [ -122.5550735, 47.2459415 ], [ -122.5552094, 47.2457209 ], [ -122.5553765, 47.2454462 ], [ -122.5556176, 47.2451768 ], [ -122.5557211, 47.2449862 ], [ -122.5554301, 47.2449 ], [ -122.5556396, 47.2444379 ], [ -122.5559979, 47.2440162 ], [ -122.5561862, 47.244006 ], [ -122.5564303, 47.2440482 ], [ -122.5564944, 47.2438561 ], [ -122.5566623, 47.2438767 ], [ -122.5566819, 47.2438219 ], [ -122.55672, 47.2437152 ], [ -122.5573854, 47.2437081 ], [ -122.5578154, 47.243709 ], [ -122.5579087, 47.2435058 ], [ -122.5580423, 47.2435147 ], [ -122.5579953, 47.2436773 ], [ -122.5579009, 47.2439849 ], [ -122.557839, 47.2442401 ], [ -122.5579401, 47.2443103 ], [ -122.5584532, 47.2443538 ], [ -122.5588998, 47.2443975 ], [ -122.5589773, 47.2443536 ], [ -122.5590755, 47.2440009 ], [ -122.5592434, 47.2439326 ], [ -122.5594848, 47.2439189 ], [ -122.5598131, 47.2439932 ], [ -122.5600518, 47.2440586 ], [ -122.560162, 47.2440453 ], [ -122.560183, 47.2439674 ], [ -122.5600282, 47.2438993 ], [ -122.559749, 47.2438193 ], [ -122.5594287, 47.2437392 ], [ -122.5592659, 47.2436662 ], [ -122.5593587, 47.2431063 ], [ -122.5593112, 47.2429136 ], [ -122.5593247, 47.2427335 ], [ -122.558008, 47.2427258 ], [ -122.5580095, 47.2426459 ], [ -122.5569137, 47.2426369 ], [ -122.5565511, 47.2426371 ], [ -122.554509, 47.242681 ], [ -122.553752, 47.242708 ], [ -122.553669, 47.242707 ], [ -122.552865, 47.242703 ], [ -122.552713, 47.242702 ], [ -122.552687, 47.242245 ], [ -122.552867, 47.242228 ], [ -122.553002, 47.242219 ], [ -122.553009, 47.242061 ], [ -122.553126, 47.242064 ], [ -122.553144, 47.242259 ], [ -122.553742, 47.242243 ], [ -122.553861, 47.242239 ], [ -122.553873, 47.242399 ], [ -122.554008, 47.242389 ], [ -122.5540307, 47.2413437 ], [ -122.5540534, 47.2402984 ], [ -122.5587035, 47.2404107 ], [ -122.559699, 47.239147 ], [ -122.560551, 47.238071 ], [ -122.561348, 47.237128 ], [ -122.561373, 47.237099 ], [ -122.5620522, 47.236414 ], [ -122.5621078, 47.2363575 ] ] ], [ [ [ -122.5137798, 47.2265161 ], [ -122.5132176, 47.2265125 ], [ -122.5132234, 47.225697 ], [ -122.5126826, 47.2256867 ], [ -122.5126673, 47.2254968 ], [ -122.5124882, 47.2254964 ], [ -122.5117727, 47.2254947 ], [ -122.5117761, 47.224823 ], [ -122.5103041, 47.2248506 ], [ -122.5064548, 47.2248443 ], [ -122.5064074, 47.2265681 ], [ -122.5074341, 47.2265478 ], [ -122.507427, 47.227437 ], [ -122.509504, 47.227421 ], [ -122.509547, 47.228257 ], [ -122.510636, 47.22822 ], [ -122.5137586, 47.2282391 ], [ -122.5137798, 47.2265161 ] ] ] ] } }
]
}
